[
  {
    "model": "salesreps.postalcode",
    "pk": 2001,
    "fields": {
      "postal_code": "07204",
      "lat": "40.665280",
      "lng": "-74.266792"
    }
  },
  {
    "model": "salesreps.postalcode",
    "pk": 2002,
    "fields": {
      "postal_code": "07205",
      "lat": "40.695876",
      "lng": "-74.228973"
    }
  },
  {
    "model": "salesreps.postalcode",
    "pk": 2003,
    "fields": {
      "postal_code": "07206",
      "lat": "40.651643",
      "lng": "-74.183709"
    }
  },
  {
    "model": "salesreps.postalcode",
    "pk": 2004,
    "fields": {
      "postal_code": "07207",
      "lat": "40.660007",
      "lng": "-74.190013"
    }
  },
  {
    "model": "salesreps.postalcode",
    "pk": 2005,
    "fields": {
      "postal_code": "07208",
      "lat": "40.673814",
      "lng": "-74.226685"
    }
  },
  {
    "model": "salesreps.postalcode",
    "pk": 2006,
    "fields": {
      "postal_code": "07302",
      "lat": "40.719365",
      "lng": "-74.046204"
    }
  },
  {
    "model": "salesreps.postalcode",
    "pk": 2007,
    "fields": {
      "postal_code": "07303",
      "lat": "40.710028",
      "lng": "-74.059953"
    }
  },
  {
    "model": "salesreps.postalcode",
    "pk": 2008,
    "fields": {
      "postal_code": "07304",
      "lat": "40.716499",
      "lng": "-74.072555"
    }
  },
  {
    "model": "salesreps.postalcode",
    "pk": 2009,
    "fields": {
      "postal_code": "07305",
      "lat": "40.697307",
      "lng": "-74.082294"
    }
  },
  {
    "model": "salesreps.postalcode",
    "pk": 2010,
    "fields": {
      "postal_code": "07306",
      "lat": "40.734951",
      "lng": "-74.071981"
    }
  },
  {
    "model": "salesreps.postalcode",
    "pk": 2011,
    "fields": {
      "postal_code": "07307",
      "lat": "40.750879",
      "lng": "-74.057084"
    }
  },
  {
    "model": "salesreps.postalcode",
    "pk": 2012,
    "fields": {
      "postal_code": "07308",
      "lat": "40.710028",
      "lng": "-74.059953"
    }
  },
  {
    "model": "salesreps.postalcode",
    "pk": 2013,
    "fields": {
      "postal_code": "07309",
      "lat": "40.710028",
      "lng": "-74.030160"
    }
  },
  {
    "model": "salesreps.postalcode",
    "pk": 2014,
    "fields": {
      "postal_code": "07310",
      "lat": "40.730136",
      "lng": "-74.037031"
    }
  },
  {
    "model": "salesreps.postalcode",
    "pk": 2015,
    "fields": {
      "postal_code": "07311",
      "lat": "40.719078",
      "lng": "-74.032448"
    }
  },
  {
    "model": "salesreps.postalcode",
    "pk": 2016,
    "fields": {
      "postal_code": "07395",
      "lat": "40.719996",
      "lng": "-74.080006"
    }
  },
  {
    "model": "salesreps.postalcode",
    "pk": 2017,
    "fields": {
      "postal_code": "07399",
      "lat": "40.710028",
      "lng": "-74.059953"
    }
  },
  {
    "model": "salesreps.postalcode",
    "pk": 2018,
    "fields": {
      "postal_code": "07401",
      "lat": "41.032659",
      "lng": "-74.133862"
    }
  },
  {
    "model": "salesreps.postalcode",
    "pk": 2019,
    "fields": {
      "postal_code": "07403",
      "lat": "41.020740",
      "lng": "-74.332682"
    }
  },
  {
    "model": "salesreps.postalcode",
    "pk": 2020,
    "fields": {
      "postal_code": "07405",
      "lat": "40.987853",
      "lng": "-74.377946"
    }
  },
  {
    "model": "salesreps.postalcode",
    "pk": 2021,
    "fields": {
      "postal_code": "07407",
      "lat": "40.904545",
      "lng": "-74.119539"
    }
  },
  {
    "model": "salesreps.postalcode",
    "pk": 2022,
    "fields": {
      "postal_code": "07410",
      "lat": "40.935830",
      "lng": "-74.117245"
    }
  },
  {
    "model": "salesreps.postalcode",
    "pk": 2023,
    "fields": {
      "postal_code": "07416",
      "lat": "41.112585",
      "lng": "-74.599681"
    }
  },
  {
    "model": "salesreps.postalcode",
    "pk": 2024,
    "fields": {
      "postal_code": "07417",
      "lat": "41.007506",
      "lng": "-74.205484"
    }
  },
  {
    "model": "salesreps.postalcode",
    "pk": 2025,
    "fields": {
      "postal_code": "07418",
      "lat": "41.242188",
      "lng": "-74.486232"
    }
  },
  {
    "model": "salesreps.postalcode",
    "pk": 2026,
    "fields": {
      "postal_code": "07419",
      "lat": "41.152750",
      "lng": "-74.572176"
    }
  },
  {
    "model": "salesreps.postalcode",
    "pk": 2027,
    "fields": {
      "postal_code": "07420",
      "lat": "41.032259",
      "lng": "-74.302889"
    }
  },
  {
    "model": "salesreps.postalcode",
    "pk": 2028,
    "fields": {
      "postal_code": "07421",
      "lat": "41.174238",
      "lng": "-74.352162"
    }
  },
  {
    "model": "salesreps.postalcode",
    "pk": 2029,
    "fields": {
      "postal_code": "07422",
      "lat": "41.182028",
      "lng": "-74.444404"
    }
  },
  {
    "model": "salesreps.postalcode",
    "pk": 2030,
    "fields": {
      "postal_code": "07423",
      "lat": "40.999484",
      "lng": "-74.096624"
    }
  },
  {
    "model": "salesreps.postalcode",
    "pk": 2031,
    "fields": {
      "postal_code": "07424",
      "lat": "40.882832",
      "lng": "-74.205484"
    }
  },
  {
    "model": "salesreps.postalcode",
    "pk": 2032,
    "fields": {
      "postal_code": "07428",
      "lat": "41.200019",
      "lng": "-74.549828"
    }
  },
  {
    "model": "salesreps.postalcode",
    "pk": 2033,
    "fields": {
      "postal_code": "07430",
      "lat": "41.083137",
      "lng": "-74.186004"
    }
  },
  {
    "model": "salesreps.postalcode",
    "pk": 2034,
    "fields": {
      "postal_code": "07432",
      "lat": "40.995817",
      "lng": "-74.141314"
    }
  },
  {
    "model": "salesreps.postalcode",
    "pk": 2035,
    "fields": {
      "postal_code": "07435",
      "lat": "41.035524",
      "lng": "-74.448987"
    }
  },
  {
    "model": "salesreps.postalcode",
    "pk": 2036,
    "fields": {
      "postal_code": "07436",
      "lat": "41.029506",
      "lng": "-74.243296"
    }
  },
  {
    "model": "salesreps.postalcode",
    "pk": 2037,
    "fields": {
      "postal_code": "07438",
      "lat": "41.028134",
      "lng": "-74.518894"
    }
  },
  {
    "model": "salesreps.postalcode",
    "pk": 2038,
    "fields": {
      "postal_code": "07439",
      "lat": "41.075689",
      "lng": "-74.601969"
    }
  },
  {
    "model": "salesreps.postalcode",
    "pk": 2039,
    "fields": {
      "postal_code": "07440",
      "lat": "40.946485",
      "lng": "-74.293142"
    }
  },
  {
    "model": "salesreps.postalcode",
    "pk": 2040,
    "fields": {
      "postal_code": "07442",
      "lat": "41.003094",
      "lng": "-74.285697"
    }
  },
  {
    "model": "salesreps.postalcode",
    "pk": 2041,
    "fields": {
      "postal_code": "07444",
      "lat": "40.967400",
      "lng": "-74.306898"
    }
  },
  {
    "model": "salesreps.postalcode",
    "pk": 2042,
    "fields": {
      "postal_code": "07446",
      "lat": "41.059129",
      "lng": "-74.145897"
    }
  },
  {
    "model": "salesreps.postalcode",
    "pk": 2043,
    "fields": {
      "postal_code": "07450",
      "lat": "40.981610",
      "lng": "-74.113235"
    }
  },
  {
    "model": "salesreps.postalcode",
    "pk": 2044,
    "fields": {
      "postal_code": "07451",
      "lat": "40.980005",
      "lng": "-74.109800"
    }
  },
  {
    "model": "salesreps.postalcode",
    "pk": 2045,
    "fields": {
      "postal_code": "07452",
      "lat": "40.959494",
      "lng": "-74.125270"
    }
  },
  {
    "model": "salesreps.postalcode",
    "pk": 2046,
    "fields": {
      "postal_code": "07456",
      "lat": "41.102330",
      "lng": "-74.273089"
    }
  },
  {
    "model": "salesreps.postalcode",
    "pk": 2047,
    "fields": {
      "postal_code": "07457",
      "lat": "40.995991",
      "lng": "-74.314917"
    }
  },
  {
    "model": "salesreps.postalcode",
    "pk": 2048,
    "fields": {
      "postal_code": "07458",
      "lat": "41.046640",
      "lng": "-74.096624"
    }
  },
  {
    "model": "salesreps.postalcode",
    "pk": 2049,
    "fields": {
      "postal_code": "07460",
      "lat": "41.111841",
      "lng": "-74.494824"
    }
  },
  {
    "model": "salesreps.postalcode",
    "pk": 2050,
    "fields": {
      "postal_code": "07461",
      "lat": "41.247004",
      "lng": "-74.610562"
    }
  },
  {
    "model": "salesreps.postalcode",
    "pk": 2051,
    "fields": {
      "postal_code": "07462",
      "lat": "41.198472",
      "lng": "-74.495398"
    }
  },
  {
    "model": "salesreps.postalcode",
    "pk": 2052,
    "fields": {
      "postal_code": "07463",
      "lat": "41.013636",
      "lng": "-74.125844"
    }
  },
  {
    "model": "salesreps.postalcode",
    "pk": 2053,
    "fields": {
      "postal_code": "07465",
      "lat": "41.054833",
      "lng": "-74.332682"
    }
  },
  {
    "model": "salesreps.postalcode",
    "pk": 2054,
    "fields": {
      "postal_code": "07470",
      "lat": "40.945857",
      "lng": "-74.245017"
    }
  },
  {
    "model": "salesreps.postalcode",
    "pk": 2055,
    "fields": {
      "postal_code": "07474",
      "lat": "40.940010",
      "lng": "-74.239860"
    }
  },
  {
    "model": "salesreps.postalcode",
    "pk": 2056,
    "fields": {
      "postal_code": "07477",
      "lat": "40.920015",
      "lng": "-74.270227"
    }
  },
  {
    "model": "salesreps.postalcode",
    "pk": 2057,
    "fields": {
      "postal_code": "07480",
      "lat": "41.088523",
      "lng": "-74.376225"
    }
  },
  {
    "model": "salesreps.postalcode",
    "pk": 2058,
    "fields": {
      "postal_code": "07481",
      "lat": "40.999085",
      "lng": "-74.168812"
    }
  },
  {
    "model": "salesreps.postalcode",
    "pk": 2059,
    "fields": {
      "postal_code": "07495",
      "lat": "41.104451",
      "lng": "-74.163082"
    }
  },
  {
    "model": "salesreps.postalcode",
    "pk": 2060,
    "fields": {
      "postal_code": "07501",
      "lat": "40.911993",
      "lng": "-74.171107"
    }
  },
  {
    "model": "salesreps.postalcode",
    "pk": 2061,
    "fields": {
      "postal_code": "07502",
      "lat": "40.918584",
      "lng": "-74.194023"
    }
  },
  {
    "model": "salesreps.postalcode",
    "pk": 2062,
    "fields": {
      "postal_code": "07503",
      "lat": "40.897554",
      "lng": "-74.153916"
    }
  },
  {
    "model": "salesreps.postalcode",
    "pk": 2063,
    "fields": {
      "postal_code": "07504",
      "lat": "40.912567",
      "lng": "-74.141888"
    }
  },
  {
    "model": "salesreps.postalcode",
    "pk": 2064,
    "fields": {
      "postal_code": "07505",
      "lat": "40.916347",
      "lng": "-74.171681"
    }
  },
  {
    "model": "salesreps.postalcode",
    "pk": 2065,
    "fields": {
      "postal_code": "07506",
      "lat": "40.956970",
      "lng": "-74.158499"
    }
  },
  {
    "model": "salesreps.postalcode",
    "pk": 2066,
    "fields": {
      "postal_code": "07507",
      "lat": "40.949983",
      "lng": "-74.149906"
    }
  },
  {
    "model": "salesreps.postalcode",
    "pk": 2067,
    "fields": {
      "postal_code": "07508",
      "lat": "40.955081",
      "lng": "-74.183709"
    }
  },
  {
    "model": "salesreps.postalcode",
    "pk": 2068,
    "fields": {
      "postal_code": "07509",
      "lat": "40.909988",
      "lng": "-74.160220"
    }
  },
  {
    "model": "salesreps.postalcode",
    "pk": 2069,
    "fields": {
      "postal_code": "07510",
      "lat": "40.909988",
      "lng": "-74.160220"
    }
  },
  {
    "model": "salesreps.postalcode",
    "pk": 2070,
    "fields": {
      "postal_code": "07511",
      "lat": "40.900020",
      "lng": "-74.219807"
    }
  },
  {
    "model": "salesreps.postalcode",
    "pk": 2071,
    "fields": {
      "postal_code": "07512",
      "lat": "40.903401",
      "lng": "-74.219807"
    }
  },
  {
    "model": "salesreps.postalcode",
    "pk": 2072,
    "fields": {
      "postal_code": "07513",
      "lat": "40.906208",
      "lng": "-74.148759"
    }
  },
  {
    "model": "salesreps.postalcode",
    "pk": 2073,
    "fields": {
      "postal_code": "07514",
      "lat": "40.927006",
      "lng": "-74.143602"
    }
  },
  {
    "model": "salesreps.postalcode",
    "pk": 2074,
    "fields": {
      "postal_code": "07522",
      "lat": "40.924943",
      "lng": "-74.179126"
    }
  },
  {
    "model": "salesreps.postalcode",
    "pk": 2075,
    "fields": {
      "postal_code": "07524",
      "lat": "40.931705",
      "lng": "-74.156784"
    }
  },
  {
    "model": "salesreps.postalcode",
    "pk": 2076,
    "fields": {
      "postal_code": "07533",
      "lat": "40.909988",
      "lng": "-74.160220"
    }
  },
  {
    "model": "salesreps.postalcode",
    "pk": 2077,
    "fields": {
      "postal_code": "07538",
      "lat": "40.929984",
      "lng": "-74.180274"
    }
  },
  {
    "model": "salesreps.postalcode",
    "pk": 2078,
    "fields": {
      "postal_code": "07543",
      "lat": "40.909988",
      "lng": "-74.160220"
    }
  },
  {
    "model": "salesreps.postalcode",
    "pk": 2079,
    "fields": {
      "postal_code": "07544",
      "lat": "40.909988",
      "lng": "-74.160220"
    }
  },
  {
    "model": "salesreps.postalcode",
    "pk": 2080,
    "fields": {
      "postal_code": "07601",
      "lat": "40.889419",
      "lng": "-74.045630"
    }
  },
  {
    "model": "salesreps.postalcode",
    "pk": 2081,
    "fields": {
      "postal_code": "07602",
      "lat": "40.880024",
      "lng": "-74.039899"
    }
  },
  {
    "model": "salesreps.postalcode",
    "pk": 2082,
    "fields": {
      "postal_code": "07603",
      "lat": "40.874294",
      "lng": "-74.029586"
    }
  },
  {
    "model": "salesreps.postalcode",
    "pk": 2083,
    "fields": {
      "postal_code": "07604",
      "lat": "40.862778",
      "lng": "-74.075423"
    }
  },
  {
    "model": "salesreps.postalcode",
    "pk": 2084,
    "fields": {
      "postal_code": "07605",
      "lat": "40.863406",
      "lng": "-73.988332"
    }
  },
  {
    "model": "salesreps.postalcode",
    "pk": 2085,
    "fields": {
      "postal_code": "07606",
      "lat": "40.857850",
      "lng": "-74.048492"
    }
  },
  {
    "model": "salesreps.postalcode",
    "pk": 2086,
    "fields": {
      "postal_code": "07607",
      "lat": "40.902885",
      "lng": "-74.063388"
    }
  },
  {
    "model": "salesreps.postalcode",
    "pk": 2087,
    "fields": {
      "postal_code": "07608",
      "lat": "40.852980",
      "lng": "-74.060527"
    }
  },
  {
    "model": "salesreps.postalcode",
    "pk": 2088,
    "fields": {
      "postal_code": "07620",
      "lat": "40.968776",
      "lng": "-73.916710"
    }
  },
  {
    "model": "salesreps.postalcode",
    "pk": 2089,
    "fields": {
      "postal_code": "07621",
      "lat": "40.922307",
      "lng": "-73.998071"
    }
  },
  {
    "model": "salesreps.postalcode",
    "pk": 2090,
    "fields": {
      "postal_code": "07624",
      "lat": "40.972898",
      "lng": "-73.960259"
    }
  },
  {
    "model": "salesreps.postalcode",
    "pk": 2091,
    "fields": {
      "postal_code": "07626",
      "lat": "40.939782",
      "lng": "-73.958538"
    }
  },
  {
    "model": "salesreps.postalcode",
    "pk": 2092,
    "fields": {
      "postal_code": "07627",
      "lat": "40.954566",
      "lng": "-73.956817"
    }
  },
  {
    "model": "salesreps.postalcode",
    "pk": 2093,
    "fields": {
      "postal_code": "07628",
      "lat": "40.945225",
      "lng": "-73.992341"
    }
  },
  {
    "model": "salesreps.postalcode",
    "pk": 2094,
    "fields": {
      "postal_code": "07630",
      "lat": "40.975019",
      "lng": "-74.023282"
    }
  },
  {
    "model": "salesreps.postalcode",
    "pk": 2095,
    "fields": {
      "postal_code": "07631",
      "lat": "40.891195",
      "lng": "-73.972287"
    }
  },
  {
    "model": "salesreps.postalcode",
    "pk": 2096,
    "fields": {
      "postal_code": "07632",
      "lat": "40.889648",
      "lng": "-73.941920"
    }
  },
  {
    "model": "salesreps.postalcode",
    "pk": 2097,
    "fields": {
      "postal_code": "07640",
      "lat": "40.991691",
      "lng": "-73.980313"
    }
  },
  {
    "model": "salesreps.postalcode",
    "pk": 2098,
    "fields": {
      "postal_code": "07641",
      "lat": "40.961727",
      "lng": "-73.997498"
    }
  },
  {
    "model": "salesreps.postalcode",
    "pk": 2099,
    "fields": {
      "postal_code": "07642",
      "lat": "41.007103",
      "lng": "-74.045056"
    }
  },
  {
    "model": "salesreps.postalcode",
    "pk": 2100,
    "fields": {
      "postal_code": "07643",
      "lat": "40.844326",
      "lng": "-74.035890"
    }
  },
  {
    "model": "salesreps.postalcode",
    "pk": 2101,
    "fields": {
      "postal_code": "07644",
      "lat": "40.877904",
      "lng": "-74.082294"
    }
  },
  {
    "model": "salesreps.postalcode",
    "pk": 2102,
    "fields": {
      "postal_code": "07645",
      "lat": "41.054604",
      "lng": "-74.047344"
    }
  },
  {
    "model": "salesreps.postalcode",
    "pk": 2103,
    "fields": {
      "postal_code": "07646",
      "lat": "40.934167",
      "lng": "-74.019272"
    }
  },
  {
    "model": "salesreps.postalcode",
    "pk": 2104,
    "fields": {
      "postal_code": "07647",
      "lat": "41.006359",
      "lng": "-73.942494"
    }
  },
  {
    "model": "salesreps.postalcode",
    "pk": 2105,
    "fields": {
      "postal_code": "07648",
      "lat": "40.992265",
      "lng": "-73.951087"
    }
  },
  {
    "model": "salesreps.postalcode",
    "pk": 2106,
    "fields": {
      "postal_code": "07649",
      "lat": "40.956628",
      "lng": "-74.033021"
    }
  },
  {
    "model": "salesreps.postalcode",
    "pk": 2107,
    "fields": {
      "postal_code": "07650",
      "lat": "40.847021",
      "lng": "-73.996924"
    }
  },
  {
    "model": "salesreps.postalcode",
    "pk": 2108,
    "fields": {
      "postal_code": "07652",
      "lat": "40.947288",
      "lng": "-74.070266"
    }
  },
  {
    "model": "salesreps.postalcode",
    "pk": 2109,
    "fields": {
      "postal_code": "07653",
      "lat": "40.940010",
      "lng": "-74.070266"
    }
  },
  {
    "model": "salesreps.postalcode",
    "pk": 2110,
    "fields": {
      "postal_code": "07656",
      "lat": "41.036210",
      "lng": "-74.044483"
    }
  },
  {
    "model": "salesreps.postalcode",
    "pk": 2111,
    "fields": {
      "postal_code": "07657",
      "lat": "40.829430",
      "lng": "-74.015837"
    }
  },
  {
    "model": "salesreps.postalcode",
    "pk": 2112,
    "fields": {
      "postal_code": "07660",
      "lat": "40.854698",
      "lng": "-74.019846"
    }
  },
  {
    "model": "salesreps.postalcode",
    "pk": 2113,
    "fields": {
      "postal_code": "07661",
      "lat": "40.927351",
      "lng": "-74.039899"
    }
  },
  {
    "model": "salesreps.postalcode",
    "pk": 2114,
    "fields": {
      "postal_code": "07662",
      "lat": "40.910675",
      "lng": "-74.082868"
    }
  },
  {
    "model": "salesreps.postalcode",
    "pk": 2115,
    "fields": {
      "postal_code": "07663",
      "lat": "40.902943",
      "lng": "-74.093756"
    }
  },
  {
    "model": "salesreps.postalcode",
    "pk": 2116,
    "fields": {
      "postal_code": "07666",
      "lat": "40.890338",
      "lng": "-74.011247"
    }
  },
  {
    "model": "salesreps.postalcode",
    "pk": 2117,
    "fields": {
      "postal_code": "07670",
      "lat": "40.918297",
      "lng": "-73.950520"
    }
  },
  {
    "model": "salesreps.postalcode",
    "pk": 2118,
    "fields": {
      "postal_code": "07675",
      "lat": "41.003497",
      "lng": "-74.001507"
    }
  },
  {
    "model": "salesreps.postalcode",
    "pk": 2119,
    "fields": {
      "postal_code": "07676",
      "lat": "40.988314",
      "lng": "-74.064536"
    }
  },
  {
    "model": "salesreps.postalcode",
    "pk": 2120,
    "fields": {
      "postal_code": "07677",
      "lat": "41.025955",
      "lng": "-74.061100"
    }
  },
  {
    "model": "salesreps.postalcode",
    "pk": 2121,
    "fields": {
      "postal_code": "07699",
      "lat": "40.849999",
      "lng": "-74.059953"
    }
  },
  {
    "model": "salesreps.postalcode",
    "pk": 2122,
    "fields": {
      "postal_code": "07701",
      "lat": "40.361668",
      "lng": "-74.078285"
    }
  },
  {
    "model": "salesreps.postalcode",
    "pk": 2123,
    "fields": {
      "postal_code": "07702",
      "lat": "40.326431",
      "lng": "-74.057084"
    }
  },
  {
    "model": "salesreps.postalcode",
    "pk": 2124,
    "fields": {
      "postal_code": "07703",
      "lat": "40.315776",
      "lng": "-74.039899"
    }
  },
  {
    "model": "salesreps.postalcode",
    "pk": 2125,
    "fields": {
      "postal_code": "07704",
      "lat": "40.361954",
      "lng": "-74.038752"
    }
  },
  {
    "model": "salesreps.postalcode",
    "pk": 2126,
    "fields": {
      "postal_code": "07709",
      "lat": "40.230002",
      "lng": "-73.999793"
    }
  },
  {
    "model": "salesreps.postalcode",
    "pk": 2127,
    "fields": {
      "postal_code": "07710",
      "lat": "40.210007",
      "lng": "-74.250174"
    }
  },
  {
    "model": "salesreps.postalcode",
    "pk": 2128,
    "fields": {
      "postal_code": "07711",
      "lat": "40.238540",
      "lng": "-74.007811"
    }
  },
  {
    "model": "salesreps.postalcode",
    "pk": 2129,
    "fields": {
      "postal_code": "07712",
      "lat": "40.249711",
      "lng": "-74.053649"
    }
  },
  {
    "model": "salesreps.postalcode",
    "pk": 2130,
    "fields": {
      "postal_code": "07715",
      "lat": "40.170012",
      "lng": "-74.019846"
    }
  },
  {
    "model": "salesreps.postalcode",
    "pk": 2131,
    "fields": {
      "postal_code": "07716",
      "lat": "40.401088",
      "lng": "-74.033021"
    }
  },
  {
    "model": "salesreps.postalcode",
    "pk": 2132,
    "fields": {
      "postal_code": "07717",
      "lat": "40.191442",
      "lng": "-74.015263"
    }
  },
  {
    "model": "salesreps.postalcode",
    "pk": 2133,
    "fields": {
      "postal_code": "07718",
      "lat": "40.419881",
      "lng": "-74.085163"
    }
  },
  {
    "model": "salesreps.postalcode",
    "pk": 2134,
    "fields": {
      "postal_code": "07719",
      "lat": "40.168926",
      "lng": "-74.073128"
    }
  },
  {
    "model": "salesreps.postalcode",
    "pk": 2135,
    "fields": {
      "postal_code": "07720",
      "lat": "40.201585",
      "lng": "-74.011821"
    }
  },
  {
    "model": "salesreps.postalcode",
    "pk": 2136,
    "fields": {
      "postal_code": "07721",
      "lat": "40.438101",
      "lng": "-74.231268"
    }
  },
  {
    "model": "salesreps.postalcode",
    "pk": 2137,
    "fields": {
      "postal_code": "07722",
      "lat": "40.280996",
      "lng": "-74.168812"
    }
  },
  {
    "model": "salesreps.postalcode",
    "pk": 2138,
    "fields": {
      "postal_code": "07723",
      "lat": "40.249711",
      "lng": "-73.997498"
    }
  },
  {
    "model": "salesreps.postalcode",
    "pk": 2139,
    "fields": {
      "postal_code": "07724",
      "lat": "40.298642",
      "lng": "-74.074276"
    }
  },
  {
    "model": "salesreps.postalcode",
    "pk": 2140,
    "fields": {
      "postal_code": "07726",
      "lat": "40.282369",
      "lng": "-74.346432"
    }
  },
  {
    "model": "salesreps.postalcode",
    "pk": 2141,
    "fields": {
      "postal_code": "07727",
      "lat": "40.204392",
      "lng": "-74.149333"
    }
  },
  {
    "model": "salesreps.postalcode",
    "pk": 2142,
    "fields": {
      "postal_code": "07728",
      "lat": "40.225819",
      "lng": "-74.285697"
    }
  },
  {
    "model": "salesreps.postalcode",
    "pk": 2143,
    "fields": {
      "postal_code": "07730",
      "lat": "40.425496",
      "lng": "-74.176264"
    }
  },
  {
    "model": "salesreps.postalcode",
    "pk": 2144,
    "fields": {
      "postal_code": "07731",
      "lat": "40.149559",
      "lng": "-74.203763"
    }
  },
  {
    "model": "salesreps.postalcode",
    "pk": 2145,
    "fields": {
      "postal_code": "07732",
      "lat": "40.430482",
      "lng": "-73.990626"
    }
  },
  {
    "model": "salesreps.postalcode",
    "pk": 2146,
    "fields": {
      "postal_code": "07733",
      "lat": "40.374959",
      "lng": "-74.173969"
    }
  },
  {
    "model": "salesreps.postalcode",
    "pk": 2147,
    "fields": {
      "postal_code": "07734",
      "lat": "40.444173",
      "lng": "-74.136731"
    }
  },
  {
    "model": "salesreps.postalcode",
    "pk": 2148,
    "fields": {
      "postal_code": "07735",
      "lat": "40.450132",
      "lng": "-74.172248"
    }
  },
  {
    "model": "salesreps.postalcode",
    "pk": 2149,
    "fields": {
      "postal_code": "07737",
      "lat": "40.412491",
      "lng": "-74.065110"
    }
  },
  {
    "model": "salesreps.postalcode",
    "pk": 2150,
    "fields": {
      "postal_code": "07738",
      "lat": "40.337892",
      "lng": "-74.126984"
    }
  },
  {
    "model": "salesreps.postalcode",
    "pk": 2151,
    "fields": {
      "postal_code": "07739",
      "lat": "40.336973",
      "lng": "-74.034743"
    }
  },
  {
    "model": "salesreps.postalcode",
    "pk": 2152,
    "fields": {
      "postal_code": "07740",
      "lat": "40.295377",
      "lng": "-73.990053"
    }
  },
  {
    "model": "salesreps.postalcode",
    "pk": 2153,
    "fields": {
      "postal_code": "07746",
      "lat": "40.323511",
      "lng": "-74.254757"
    }
  },
  {
    "model": "salesreps.postalcode",
    "pk": 2154,
    "fields": {
      "postal_code": "07747",
      "lat": "40.415298",
      "lng": "-74.254183"
    }
  },
  {
    "model": "salesreps.postalcode",
    "pk": 2155,
    "fields": {
      "postal_code": "07748",
      "lat": "40.396276",
      "lng": "-74.115530"
    }
  },
  {
    "model": "salesreps.postalcode",
    "pk": 2156,
    "fields": {
      "postal_code": "07750",
      "lat": "40.335884",
      "lng": "-73.985470"
    }
  },
  {
    "model": "salesreps.postalcode",
    "pk": 2157,
    "fields": {
      "postal_code": "07751",
      "lat": "40.359663",
      "lng": "-74.261635"
    }
  },
  {
    "model": "salesreps.postalcode",
    "pk": 2158,
    "fields": {
      "postal_code": "07752",
      "lat": "40.389972",
      "lng": "-74.109800"
    }
  },
  {
    "model": "salesreps.postalcode",
    "pk": 2159,
    "fields": {
      "postal_code": "07753",
      "lat": "40.214877",
      "lng": "-74.078859"
    }
  },
  {
    "model": "salesreps.postalcode",
    "pk": 2160,
    "fields": {
      "postal_code": "07754",
      "lat": "40.210007",
      "lng": "-74.080006"
    }
  },
  {
    "model": "salesreps.postalcode",
    "pk": 2161,
    "fields": {
      "postal_code": "07755",
      "lat": "40.263634",
      "lng": "-74.022708"
    }
  },
  {
    "model": "salesreps.postalcode",
    "pk": 2162,
    "fields": {
      "postal_code": "07756",
      "lat": "40.211841",
      "lng": "-74.006664"
    }
  },
  {
    "model": "salesreps.postalcode",
    "pk": 2163,
    "fields": {
      "postal_code": "07757",
      "lat": "40.316291",
      "lng": "-74.015837"
    }
  },
  {
    "model": "salesreps.postalcode",
    "pk": 2164,
    "fields": {
      "postal_code": "07758",
      "lat": "40.434262",
      "lng": "-74.100634"
    }
  },
  {
    "model": "salesreps.postalcode",
    "pk": 2165,
    "fields": {
      "postal_code": "07760",
      "lat": "40.369574",
      "lng": "-74.002081"
    }
  },
  {
    "model": "salesreps.postalcode",
    "pk": 2166,
    "fields": {
      "postal_code": "07762",
      "lat": "40.153398",
      "lng": "-74.033595"
    }
  },
  {
    "model": "salesreps.postalcode",
    "pk": 2167,
    "fields": {
      "postal_code": "07763",
      "lat": "40.289992",
      "lng": "-74.360181"
    }
  },
  {
    "model": "salesreps.postalcode",
    "pk": 2168,
    "fields": {
      "postal_code": "07764",
      "lat": "40.287929",
      "lng": "-74.019846"
    }
  },
  {
    "model": "salesreps.postalcode",
    "pk": 2169,
    "fields": {
      "postal_code": "07765",
      "lat": "40.349981",
      "lng": "-74.259914"
    }
  },
  {
    "model": "salesreps.postalcode",
    "pk": 2171,
    "fields": {
      "postal_code": "07799",
      "lat": "40.289992",
      "lng": "-74.050213"
    }
  },
  {
    "model": "salesreps.postalcode",
    "pk": 2172,
    "fields": {
      "postal_code": "07801",
      "lat": "40.917208",
      "lng": "-74.554985"
    }
  },
  {
    "model": "salesreps.postalcode",
    "pk": 2173,
    "fields": {
      "postal_code": "07802",
      "lat": "40.880024",
      "lng": "-74.549828"
    }
  },
  {
    "model": "salesreps.postalcode",
    "pk": 2174,
    "fields": {
      "postal_code": "07803",
      "lat": "40.878074",
      "lng": "-74.601396"
    }
  },
  {
    "model": "salesreps.postalcode",
    "pk": 2175,
    "fields": {
      "postal_code": "07806",
      "lat": "40.929984",
      "lng": "-74.540088"
    }
  },
  {
    "model": "salesreps.postalcode",
    "pk": 2176,
    "fields": {
      "postal_code": "07820",
      "lat": "40.931360",
      "lng": "-74.811670"
    }
  },
  {
    "model": "salesreps.postalcode",
    "pk": 2177,
    "fields": {
      "postal_code": "07821",
      "lat": "40.965911",
      "lng": "-74.754378"
    }
  },
  {
    "model": "salesreps.postalcode",
    "pk": 2178,
    "fields": {
      "postal_code": "07822",
      "lat": "41.138772",
      "lng": "-74.708541"
    }
  },
  {
    "model": "salesreps.postalcode",
    "pk": 2179,
    "fields": {
      "postal_code": "07823",
      "lat": "40.829430",
      "lng": "-75.039709"
    }
  },
  {
    "model": "salesreps.postalcode",
    "pk": 2180,
    "fields": {
      "postal_code": "07825",
      "lat": "40.971238",
      "lng": "-74.975540"
    }
  },
  {
    "model": "salesreps.postalcode",
    "pk": 2181,
    "fields": {
      "postal_code": "07826",
      "lat": "41.193202",
      "lng": "-74.778441"
    }
  },
  {
    "model": "salesreps.postalcode",
    "pk": 2182,
    "fields": {
      "postal_code": "07827",
      "lat": "41.280922",
      "lng": "-74.730315"
    }
  },
  {
    "model": "salesreps.postalcode",
    "pk": 2183,
    "fields": {
      "postal_code": "07828",
      "lat": "40.883918",
      "lng": "-74.750369"
    }
  },
  {
    "model": "salesreps.postalcode",
    "pk": 2184,
    "fields": {
      "postal_code": "07829",
      "lat": "40.819977",
      "lng": "-75.040283"
    }
  },
  {
    "model": "salesreps.postalcode",
    "pk": 2185,
    "fields": {
      "postal_code": "07830",
      "lat": "40.719310",
      "lng": "-74.793911"
    }
  },
  {
    "model": "salesreps.postalcode",
    "pk": 2186,
    "fields": {
      "postal_code": "07831",
      "lat": "40.739992",
      "lng": "-74.949756"
    }
  },
  {
    "model": "salesreps.postalcode",
    "pk": 2187,
    "fields": {
      "postal_code": "07832",
      "lat": "40.962127",
      "lng": "-75.053459"
    }
  },
  {
    "model": "salesreps.postalcode",
    "pk": 2188,
    "fields": {
      "postal_code": "07833",
      "lat": "40.892800",
      "lng": "-75.069503"
    }
  },
  {
    "model": "salesreps.postalcode",
    "pk": 2189,
    "fields": {
      "postal_code": "07834",
      "lat": "40.887244",
      "lng": "-74.490241"
    }
  },
  {
    "model": "salesreps.postalcode",
    "pk": 2190,
    "fields": {
      "postal_code": "07836",
      "lat": "40.843124",
      "lng": "-74.710829"
    }
  },
  {
    "model": "salesreps.postalcode",
    "pk": 2191,
    "fields": {
      "postal_code": "07837",
      "lat": "40.980005",
      "lng": "-74.630041"
    }
  },
  {
    "model": "salesreps.postalcode",
    "pk": 2192,
    "fields": {
      "postal_code": "07838",
      "lat": "40.887930",
      "lng": "-74.911937"
    }
  },
  {
    "model": "salesreps.postalcode",
    "pk": 2193,
    "fields": {
      "postal_code": "07839",
      "lat": "40.969978",
      "lng": "-74.809955"
    }
  },
  {
    "model": "salesreps.postalcode",
    "pk": 2194,
    "fields": {
      "postal_code": "07840",
      "lat": "40.854182",
      "lng": "-74.835166"
    }
  },
  {
    "model": "salesreps.postalcode",
    "pk": 2195,
    "fields": {
      "postal_code": "07842",
      "lat": "40.942131",
      "lng": "-74.512016"
    }
  },
  {
    "model": "salesreps.postalcode",
    "pk": 2196,
    "fields": {
      "postal_code": "07843",
      "lat": "40.939266",
      "lng": "-74.659268"
    }
  },
  {
    "model": "salesreps.postalcode",
    "pk": 2197,
    "fields": {
      "postal_code": "07844",
      "lat": "40.909988",
      "lng": "-74.960069"
    }
  },
  {
    "model": "salesreps.postalcode",
    "pk": 2198,
    "fields": {
      "postal_code": "07845",
      "lat": "40.849999",
      "lng": "-74.569881"
    }
  },
  {
    "model": "salesreps.postalcode",
    "pk": 2199,
    "fields": {
      "postal_code": "07846",
      "lat": "40.965965",
      "lng": "-74.876987"
    }
  },
  {
    "model": "salesreps.postalcode",
    "pk": 2200,
    "fields": {
      "postal_code": "07847",
      "lat": "40.889361",
      "lng": "-74.623744"
    }
  },
  {
    "model": "salesreps.postalcode",
    "pk": 2201,
    "fields": {
      "postal_code": "07848",
      "lat": "41.103877",
      "lng": "-74.686766"
    }
  },
  {
    "model": "salesreps.postalcode",
    "pk": 2202,
    "fields": {
      "postal_code": "07849",
      "lat": "40.970323",
      "lng": "-74.607126"
    }
  },
  {
    "model": "salesreps.postalcode",
    "pk": 2203,
    "fields": {
      "postal_code": "07850",
      "lat": "40.906836",
      "lng": "-74.662130"
    }
  },
  {
    "model": "salesreps.postalcode",
    "pk": 2204,
    "fields": {
      "postal_code": "07851",
      "lat": "41.231417",
      "lng": "-74.846620"
    }
  },
  {
    "model": "salesreps.postalcode",
    "pk": 2205,
    "fields": {
      "postal_code": "07852",
      "lat": "40.883289",
      "lng": "-74.667860"
    }
  },
  {
    "model": "salesreps.postalcode",
    "pk": 2206,
    "fields": {
      "postal_code": "07853",
      "lat": "40.780730",
      "lng": "-74.789328"
    }
  },
  {
    "model": "salesreps.postalcode",
    "pk": 2207,
    "fields": {
      "postal_code": "07855",
      "lat": "41.059990",
      "lng": "-74.890169"
    }
  },
  {
    "model": "salesreps.postalcode",
    "pk": 2208,
    "fields": {
      "postal_code": "07856",
      "lat": "40.916060",
      "lng": "-74.626606"
    }
  },
  {
    "model": "salesreps.postalcode",
    "pk": 2209,
    "fields": {
      "postal_code": "07857",
      "lat": "40.896755",
      "lng": "-74.700515"
    }
  },
  {
    "model": "salesreps.postalcode",
    "pk": 2210,
    "fields": {
      "postal_code": "07860",
      "lat": "41.056551",
      "lng": "-74.819122"
    }
  },
  {
    "model": "salesreps.postalcode",
    "pk": 2211,
    "fields": {
      "postal_code": "07863",
      "lat": "40.807600",
      "lng": "-74.957774"
    }
  },
  {
    "model": "salesreps.postalcode",
    "pk": 2212,
    "fields": {
      "postal_code": "07865",
      "lat": "40.793793",
      "lng": "-74.898188"
    }
  },
  {
    "model": "salesreps.postalcode",
    "pk": 2213,
    "fields": {
      "postal_code": "07866",
      "lat": "40.954852",
      "lng": "-74.489094"
    }
  },
  {
    "model": "salesreps.postalcode",
    "pk": 2214,
    "fields": {
      "postal_code": "07869",
      "lat": "40.841693",
      "lng": "-74.578480"
    }
  },
  {
    "model": "salesreps.postalcode",
    "pk": 2215,
    "fields": {
      "postal_code": "07870",
      "lat": "40.803991",
      "lng": "-74.819695"
    }
  },
  {
    "model": "salesreps.postalcode",
    "pk": 2216,
    "fields": {
      "postal_code": "07871",
      "lat": "41.052254",
      "lng": "-74.627753"
    }
  },
  {
    "model": "salesreps.postalcode",
    "pk": 2217,
    "fields": {
      "postal_code": "07874",
      "lat": "40.923051",
      "lng": "-74.736039"
    }
  },
  {
    "model": "salesreps.postalcode",
    "pk": 2218,
    "fields": {
      "postal_code": "07875",
      "lat": "41.050021",
      "lng": "-74.859802"
    }
  },
  {
    "model": "salesreps.postalcode",
    "pk": 2219,
    "fields": {
      "postal_code": "07876",
      "lat": "40.854469",
      "lng": "-74.657547"
    }
  },
  {
    "model": "salesreps.postalcode",
    "pk": 2220,
    "fields": {
      "postal_code": "07877",
      "lat": "41.090012",
      "lng": "-74.839749"
    }
  },
  {
    "model": "salesreps.postalcode",
    "pk": 2221,
    "fields": {
      "postal_code": "07878",
      "lat": "40.872460",
      "lng": "-74.473630"
    }
  },
  {
    "model": "salesreps.postalcode",
    "pk": 2222,
    "fields": {
      "postal_code": "07879",
      "lat": "40.949983",
      "lng": "-74.800216"
    }
  },
  {
    "model": "salesreps.postalcode",
    "pk": 2223,
    "fields": {
      "postal_code": "07880",
      "lat": "40.871429",
      "lng": "-74.889022"
    }
  },
  {
    "model": "salesreps.postalcode",
    "pk": 2224,
    "fields": {
      "postal_code": "07881",
      "lat": "41.120666",
      "lng": "-74.890169"
    }
  },
  {
    "model": "salesreps.postalcode",
    "pk": 2225,
    "fields": {
      "postal_code": "07882",
      "lat": "40.752655",
      "lng": "-75.013925"
    }
  },
  {
    "model": "salesreps.postalcode",
    "pk": 2226,
    "fields": {
      "postal_code": "07885",
      "lat": "40.910504",
      "lng": "-74.599681"
    }
  },
  {
    "model": "salesreps.postalcode",
    "pk": 2227,
    "fields": {
      "postal_code": "07890",
      "lat": "41.139974",
      "lng": "-74.740055"
    }
  },
  {
    "model": "salesreps.postalcode",
    "pk": 2228,
    "fields": {
      "postal_code": "07901",
      "lat": "40.714898",
      "lng": "-74.366485"
    }
  },
  {
    "model": "salesreps.postalcode",
    "pk": 2229,
    "fields": {
      "postal_code": "07902",
      "lat": "40.710028",
      "lng": "-74.360181"
    }
  },
  {
    "model": "salesreps.postalcode",
    "pk": 2230,
    "fields": {
      "postal_code": "07920",
      "lat": "40.678971",
      "lng": "-74.564157"
    }
  },
  {
    "model": "salesreps.postalcode",
    "pk": 2231,
    "fields": {
      "postal_code": "07921",
      "lat": "40.655998",
      "lng": "-74.678748"
    }
  },
  {
    "model": "salesreps.postalcode",
    "pk": 2232,
    "fields": {
      "postal_code": "07922",
      "lat": "40.676392",
      "lng": "-74.424924"
    }
  },
  {
    "model": "salesreps.postalcode",
    "pk": 2233,
    "fields": {
      "postal_code": "07924",
      "lat": "40.730368",
      "lng": "-74.592803"
    }
  },
  {
    "model": "salesreps.postalcode",
    "pk": 2234,
    "fields": {
      "postal_code": "07926",
      "lat": "40.801241",
      "lng": "-74.569881"
    }
  },
  {
    "model": "salesreps.postalcode",
    "pk": 2235,
    "fields": {
      "postal_code": "07927",
      "lat": "40.821869",
      "lng": "-74.454144"
    }
  },
  {
    "model": "salesreps.postalcode",
    "pk": 2236,
    "fields": {
      "postal_code": "07928",
      "lat": "40.726010",
      "lng": "-74.412896"
    }
  },
  {
    "model": "salesreps.postalcode",
    "pk": 2237,
    "fields": {
      "postal_code": "07930",
      "lat": "40.781188",
      "lng": "-74.683904"
    }
  },
  {
    "model": "salesreps.postalcode",
    "pk": 2238,
    "fields": {
      "postal_code": "07931",
      "lat": "40.681437",
      "lng": "-74.616292"
    }
  },
  {
    "model": "salesreps.postalcode",
    "pk": 2239,
    "fields": {
      "postal_code": "07932",
      "lat": "40.777233",
      "lng": "-74.392843"
    }
  },
  {
    "model": "salesreps.postalcode",
    "pk": 2240,
    "fields": {
      "postal_code": "07933",
      "lat": "40.704239",
      "lng": "-74.459300"
    }
  },
  {
    "model": "salesreps.postalcode",
    "pk": 2241,
    "fields": {
      "postal_code": "07934",
      "lat": "40.722633",
      "lng": "-74.675305"
    }
  },
  {
    "model": "salesreps.postalcode",
    "pk": 2242,
    "fields": {
      "postal_code": "07935",
      "lat": "40.735982",
      "lng": "-74.446125"
    }
  },
  {
    "model": "salesreps.postalcode",
    "pk": 2243,
    "fields": {
      "postal_code": "07936",
      "lat": "40.818546",
      "lng": "-74.363616"
    }
  },
  {
    "model": "salesreps.postalcode",
    "pk": 2244,
    "fields": {
      "postal_code": "07938",
      "lat": "40.680002",
      "lng": "-74.560141"
    }
  },
  {
    "model": "salesreps.postalcode",
    "pk": 2245,
    "fields": {
      "postal_code": "07939",
      "lat": "40.667397",
      "lng": "-74.553844"
    }
  },
  {
    "model": "salesreps.postalcode",
    "pk": 2246,
    "fields": {
      "postal_code": "07940",
      "lat": "40.760161",
      "lng": "-74.419194"
    }
  },
  {
    "model": "salesreps.postalcode",
    "pk": 2247,
    "fields": {
      "postal_code": "07945",
      "lat": "40.781933",
      "lng": "-74.599681"
    }
  },
  {
    "model": "salesreps.postalcode",
    "pk": 2248,
    "fields": {
      "postal_code": "07946",
      "lat": "40.677711",
      "lng": "-74.508580"
    }
  },
  {
    "model": "salesreps.postalcode",
    "pk": 2249,
    "fields": {
      "postal_code": "07950",
      "lat": "40.846048",
      "lng": "-74.482223"
    }
  },
  {
    "model": "salesreps.postalcode",
    "pk": 2250,
    "fields": {
      "postal_code": "07960",
      "lat": "40.784224",
      "lng": "-74.499981"
    }
  },
  {
    "model": "salesreps.postalcode",
    "pk": 2251,
    "fields": {
      "postal_code": "07961",
      "lat": "40.780614",
      "lng": "-74.432950"
    }
  },
  {
    "model": "salesreps.postalcode",
    "pk": 2252,
    "fields": {
      "postal_code": "07962",
      "lat": "40.790013",
      "lng": "-74.470188"
    }
  },
  {
    "model": "salesreps.postalcode",
    "pk": 2253,
    "fields": {
      "postal_code": "07963",
      "lat": "40.790013",
      "lng": "-74.470188"
    }
  },
  {
    "model": "salesreps.postalcode",
    "pk": 2254,
    "fields": {
      "postal_code": "07970",
      "lat": "40.808058",
      "lng": "-74.572750"
    }
  },
  {
    "model": "salesreps.postalcode",
    "pk": 2255,
    "fields": {
      "postal_code": "07974",
      "lat": "40.696907",
      "lng": "-74.403723"
    }
  },
  {
    "model": "salesreps.postalcode",
    "pk": 2256,
    "fields": {
      "postal_code": "07976",
      "lat": "40.728073",
      "lng": "-74.479354"
    }
  },
  {
    "model": "salesreps.postalcode",
    "pk": 2257,
    "fields": {
      "postal_code": "07977",
      "lat": "40.705212",
      "lng": "-74.670148"
    }
  },
  {
    "model": "salesreps.postalcode",
    "pk": 2258,
    "fields": {
      "postal_code": "07978",
      "lat": "40.660007",
      "lng": "-74.679895"
    }
  },
  {
    "model": "salesreps.postalcode",
    "pk": 2259,
    "fields": {
      "postal_code": "07979",
      "lat": "40.700629",
      "lng": "-74.730315"
    }
  },
  {
    "model": "salesreps.postalcode",
    "pk": 2260,
    "fields": {
      "postal_code": "07980",
      "lat": "40.680405",
      "lng": "-74.489094"
    }
  },
  {
    "model": "salesreps.postalcode",
    "pk": 2261,
    "fields": {
      "postal_code": "07981",
      "lat": "40.820380",
      "lng": "-74.422636"
    }
  },
  {
    "model": "salesreps.postalcode",
    "pk": 2262,
    "fields": {
      "postal_code": "07983",
      "lat": "40.819977",
      "lng": "-74.410027"
    }
  },
  {
    "model": "salesreps.postalcode",
    "pk": 2263,
    "fields": {
      "postal_code": "07999",
      "lat": "40.819977",
      "lng": "-74.410027"
    }
  },
  {
    "model": "salesreps.postalcode",
    "pk": 2264,
    "fields": {
      "postal_code": "08001",
      "lat": "39.547895",
      "lng": "-75.346241"
    }
  },
  {
    "model": "salesreps.postalcode",
    "pk": 2265,
    "fields": {
      "postal_code": "08002",
      "lat": "39.931950",
      "lng": "-75.027675"
    }
  },
  {
    "model": "salesreps.postalcode",
    "pk": 2266,
    "fields": {
      "postal_code": "08003",
      "lat": "39.882677",
      "lng": "-74.972097"
    }
  },
  {
    "model": "salesreps.postalcode",
    "pk": 2267,
    "fields": {
      "postal_code": "08004",
      "lat": "39.764760",
      "lng": "-74.870690"
    }
  },
  {
    "model": "salesreps.postalcode",
    "pk": 2268,
    "fields": {
      "postal_code": "08005",
      "lat": "39.767742",
      "lng": "-74.312629"
    }
  },
  {
    "model": "salesreps.postalcode",
    "pk": 2269,
    "fields": {
      "postal_code": "08006",
      "lat": "39.752787",
      "lng": "-74.106364"
    }
  },
  {
    "model": "salesreps.postalcode",
    "pk": 2270,
    "fields": {
      "postal_code": "08007",
      "lat": "39.865830",
      "lng": "-75.054032"
    }
  },
  {
    "model": "salesreps.postalcode",
    "pk": 2271,
    "fields": {
      "postal_code": "08008",
      "lat": "39.542625",
      "lng": "-74.298299"
    }
  },
  {
    "model": "salesreps.postalcode",
    "pk": 2272,
    "fields": {
      "postal_code": "08009",
      "lat": "39.760635",
      "lng": "-74.933138"
    }
  },
  {
    "model": "salesreps.postalcode",
    "pk": 2273,
    "fields": {
      "postal_code": "08010",
      "lat": "40.055194",
      "lng": "-74.917094"
    }
  },
  {
    "model": "salesreps.postalcode",
    "pk": 2274,
    "fields": {
      "postal_code": "08011",
      "lat": "39.972743",
      "lng": "-74.713124"
    }
  },
  {
    "model": "salesreps.postalcode",
    "pk": 2275,
    "fields": {
      "postal_code": "08012",
      "lat": "39.783840",
      "lng": "-75.056327"
    }
  },
  {
    "model": "salesreps.postalcode",
    "pk": 2276,
    "fields": {
      "postal_code": "08014",
      "lat": "39.815925",
      "lng": "-75.348536"
    }
  },
  {
    "model": "salesreps.postalcode",
    "pk": 2277,
    "fields": {
      "postal_code": "08015",
      "lat": "39.931550",
      "lng": "-74.543530"
    }
  },
  {
    "model": "salesreps.postalcode",
    "pk": 2278,
    "fields": {
      "postal_code": "08016",
      "lat": "40.069517",
      "lng": "-74.824278"
    }
  },
  {
    "model": "salesreps.postalcode",
    "pk": 2279,
    "fields": {
      "postal_code": "08018",
      "lat": "39.720012",
      "lng": "-74.899909"
    }
  },
  {
    "model": "salesreps.postalcode",
    "pk": 2280,
    "fields": {
      "postal_code": "08019",
      "lat": "39.777307",
      "lng": "-74.534357"
    }
  },
  {
    "model": "salesreps.postalcode",
    "pk": 2281,
    "fields": {
      "postal_code": "08020",
      "lat": "39.791576",
      "lng": "-75.224200"
    }
  },
  {
    "model": "salesreps.postalcode",
    "pk": 2282,
    "fields": {
      "postal_code": "08021",
      "lat": "39.806185",
      "lng": "-75.000176"
    }
  },
  {
    "model": "salesreps.postalcode",
    "pk": 2283,
    "fields": {
      "postal_code": "08022",
      "lat": "40.067570",
      "lng": "-74.705672"
    }
  },
  {
    "model": "salesreps.postalcode",
    "pk": 2284,
    "fields": {
      "postal_code": "08023",
      "lat": "39.686725",
      "lng": "-75.496355"
    }
  },
  {
    "model": "salesreps.postalcode",
    "pk": 2285,
    "fields": {
      "postal_code": "08025",
      "lat": "39.709986",
      "lng": "-75.229930"
    }
  },
  {
    "model": "salesreps.postalcode",
    "pk": 2286,
    "fields": {
      "postal_code": "08026",
      "lat": "39.832885",
      "lng": "-74.966941"
    }
  },
  {
    "model": "salesreps.postalcode",
    "pk": 2287,
    "fields": {
      "postal_code": "08027",
      "lat": "39.834606",
      "lng": "-75.288943"
    }
  },
  {
    "model": "salesreps.postalcode",
    "pk": 2288,
    "fields": {
      "postal_code": "08028",
      "lat": "39.695891",
      "lng": "-75.121644"
    }
  },
  {
    "model": "salesreps.postalcode",
    "pk": 2289,
    "fields": {
      "postal_code": "08029",
      "lat": "39.840965",
      "lng": "-75.067215"
    }
  },
  {
    "model": "salesreps.postalcode",
    "pk": 2290,
    "fields": {
      "postal_code": "08030",
      "lat": "39.888919",
      "lng": "-75.118202"
    }
  },
  {
    "model": "salesreps.postalcode",
    "pk": 2291,
    "fields": {
      "postal_code": "08031",
      "lat": "39.866346",
      "lng": "-75.094713"
    }
  },
  {
    "model": "salesreps.postalcode",
    "pk": 2292,
    "fields": {
      "postal_code": "08032",
      "lat": "39.769975",
      "lng": "-75.050023"
    }
  },
  {
    "model": "salesreps.postalcode",
    "pk": 2293,
    "fields": {
      "postal_code": "08033",
      "lat": "39.892417",
      "lng": "-75.036848"
    }
  },
  {
    "model": "salesreps.postalcode",
    "pk": 2294,
    "fields": {
      "postal_code": "08034",
      "lat": "39.906111",
      "lng": "-75.000176"
    }
  },
  {
    "model": "salesreps.postalcode",
    "pk": 2295,
    "fields": {
      "postal_code": "08035",
      "lat": "39.879122",
      "lng": "-75.066067"
    }
  },
  {
    "model": "salesreps.postalcode",
    "pk": 2296,
    "fields": {
      "postal_code": "08036",
      "lat": "39.970568",
      "lng": "-74.832297"
    }
  },
  {
    "model": "salesreps.postalcode",
    "pk": 2297,
    "fields": {
      "postal_code": "08037",
      "lat": "39.639969",
      "lng": "-74.759535"
    }
  },
  {
    "model": "salesreps.postalcode",
    "pk": 2298,
    "fields": {
      "postal_code": "08038",
      "lat": "39.470031",
      "lng": "-75.490051"
    }
  },
  {
    "model": "salesreps.postalcode",
    "pk": 2299,
    "fields": {
      "postal_code": "08039",
      "lat": "39.685636",
      "lng": "-75.277489"
    }
  },
  {
    "model": "salesreps.postalcode",
    "pk": 2300,
    "fields": {
      "postal_code": "08041",
      "lat": "40.039091",
      "lng": "-74.678748"
    }
  },
  {
    "model": "salesreps.postalcode",
    "pk": 2301,
    "fields": {
      "postal_code": "08042",
      "lat": "40.015374",
      "lng": "-74.662130"
    }
  },
  {
    "model": "salesreps.postalcode",
    "pk": 2302,
    "fields": {
      "postal_code": "08043",
      "lat": "39.848526",
      "lng": "-74.953765"
    }
  },
  {
    "model": "salesreps.postalcode",
    "pk": 2303,
    "fields": {
      "postal_code": "08045",
      "lat": "39.867090",
      "lng": "-75.029970"
    }
  },
  {
    "model": "salesreps.postalcode",
    "pk": 2304,
    "fields": {
      "postal_code": "08046",
      "lat": "40.027979",
      "lng": "-74.886727"
    }
  },
  {
    "model": "salesreps.postalcode",
    "pk": 2305,
    "fields": {
      "postal_code": "08048",
      "lat": "39.958878",
      "lng": "-74.802504"
    }
  },
  {
    "model": "salesreps.postalcode",
    "pk": 2306,
    "fields": {
      "postal_code": "08049",
      "lat": "39.854372",
      "lng": "-75.038562"
    }
  },
  {
    "model": "salesreps.postalcode",
    "pk": 2307,
    "fields": {
      "postal_code": "08050",
      "lat": "39.712735",
      "lng": "-74.231268"
    }
  },
  {
    "model": "salesreps.postalcode",
    "pk": 2308,
    "fields": {
      "postal_code": "08051",
      "lat": "39.783898",
      "lng": "-75.176074"
    }
  },
  {
    "model": "salesreps.postalcode",
    "pk": 2309,
    "fields": {
      "postal_code": "08052",
      "lat": "39.952403",
      "lng": "-74.995019"
    }
  },
  {
    "model": "salesreps.postalcode",
    "pk": 2310,
    "fields": {
      "postal_code": "08053",
      "lat": "39.856664",
      "lng": "-74.901057"
    }
  },
  {
    "model": "salesreps.postalcode",
    "pk": 2311,
    "fields": {
      "postal_code": "08054",
      "lat": "39.948967",
      "lng": "-74.900483"
    }
  },
  {
    "model": "salesreps.postalcode",
    "pk": 2312,
    "fields": {
      "postal_code": "08055",
      "lat": "39.862678",
      "lng": "-74.822557"
    }
  },
  {
    "model": "salesreps.postalcode",
    "pk": 2313,
    "fields": {
      "postal_code": "08056",
      "lat": "39.783670",
      "lng": "-75.255140"
    }
  },
  {
    "model": "salesreps.postalcode",
    "pk": 2314,
    "fields": {
      "postal_code": "08057",
      "lat": "39.979676",
      "lng": "-74.941163"
    }
  },
  {
    "model": "salesreps.postalcode",
    "pk": 2315,
    "fields": {
      "postal_code": "08059",
      "lat": "39.884852",
      "lng": "-75.092425"
    }
  },
  {
    "model": "salesreps.postalcode",
    "pk": 2316,
    "fields": {
      "postal_code": "08060",
      "lat": "40.007751",
      "lng": "-74.789902"
    }
  },
  {
    "model": "salesreps.postalcode",
    "pk": 2317,
    "fields": {
      "postal_code": "08061",
      "lat": "39.798853",
      "lng": "-75.205294"
    }
  },
  {
    "model": "salesreps.postalcode",
    "pk": 2318,
    "fields": {
      "postal_code": "08062",
      "lat": "39.716058",
      "lng": "-75.219043"
    }
  },
  {
    "model": "salesreps.postalcode",
    "pk": 2319,
    "fields": {
      "postal_code": "08063",
      "lat": "39.867319",
      "lng": "-75.185814"
    }
  },
  {
    "model": "salesreps.postalcode",
    "pk": 2320,
    "fields": {
      "postal_code": "08064",
      "lat": "39.962774",
      "lng": "-74.640929"
    }
  },
  {
    "model": "salesreps.postalcode",
    "pk": 2321,
    "fields": {
      "postal_code": "08065",
      "lat": "40.002594",
      "lng": "-75.035126"
    }
  },
  {
    "model": "salesreps.postalcode",
    "pk": 2322,
    "fields": {
      "postal_code": "08066",
      "lat": "39.834319",
      "lng": "-75.228216"
    }
  },
  {
    "model": "salesreps.postalcode",
    "pk": 2323,
    "fields": {
      "postal_code": "08067",
      "lat": "39.739205",
      "lng": "-75.411559"
    }
  },
  {
    "model": "salesreps.postalcode",
    "pk": 2324,
    "fields": {
      "postal_code": "08068",
      "lat": "39.961401",
      "lng": "-74.666139"
    }
  },
  {
    "model": "salesreps.postalcode",
    "pk": 2325,
    "fields": {
      "postal_code": "08069",
      "lat": "39.699272",
      "lng": "-75.445361"
    }
  },
  {
    "model": "salesreps.postalcode",
    "pk": 2326,
    "fields": {
      "postal_code": "08070",
      "lat": "39.619113",
      "lng": "-75.515835"
    }
  },
  {
    "model": "salesreps.postalcode",
    "pk": 2327,
    "fields": {
      "postal_code": "08071",
      "lat": "39.731873",
      "lng": "-75.133672"
    }
  },
  {
    "model": "salesreps.postalcode",
    "pk": 2328,
    "fields": {
      "postal_code": "08072",
      "lat": "39.544285",
      "lng": "-75.418437"
    }
  },
  {
    "model": "salesreps.postalcode",
    "pk": 2329,
    "fields": {
      "postal_code": "08073",
      "lat": "40.009527",
      "lng": "-74.866673"
    }
  },
  {
    "model": "salesreps.postalcode",
    "pk": 2330,
    "fields": {
      "postal_code": "08074",
      "lat": "39.716174",
      "lng": "-75.163466"
    }
  },
  {
    "model": "salesreps.postalcode",
    "pk": 2331,
    "fields": {
      "postal_code": "08075",
      "lat": "40.029580",
      "lng": "-74.949182"
    }
  },
  {
    "model": "salesreps.postalcode",
    "pk": 2332,
    "fields": {
      "postal_code": "08076",
      "lat": "40.009988",
      "lng": "-75.009916"
    }
  },
  {
    "model": "salesreps.postalcode",
    "pk": 2333,
    "fields": {
      "postal_code": "08077",
      "lat": "40.000190",
      "lng": "-74.991584"
    }
  },
  {
    "model": "salesreps.postalcode",
    "pk": 2334,
    "fields": {
      "postal_code": "08078",
      "lat": "39.853396",
      "lng": "-75.075233"
    }
  },
  {
    "model": "salesreps.postalcode",
    "pk": 2335,
    "fields": {
      "postal_code": "08079",
      "lat": "39.542397",
      "lng": "-75.431612"
    }
  },
  {
    "model": "salesreps.postalcode",
    "pk": 2336,
    "fields": {
      "postal_code": "08080",
      "lat": "39.757428",
      "lng": "-75.121644"
    }
  },
  {
    "model": "salesreps.postalcode",
    "pk": 2337,
    "fields": {
      "postal_code": "08081",
      "lat": "39.732962",
      "lng": "-74.976687"
    }
  },
  {
    "model": "salesreps.postalcode",
    "pk": 2338,
    "fields": {
      "postal_code": "08083",
      "lat": "39.841252",
      "lng": "-75.028822"
    }
  },
  {
    "model": "salesreps.postalcode",
    "pk": 2339,
    "fields": {
      "postal_code": "08084",
      "lat": "39.828933",
      "lng": "-75.015647"
    }
  },
  {
    "model": "salesreps.postalcode",
    "pk": 2340,
    "fields": {
      "postal_code": "08085",
      "lat": "39.761151",
      "lng": "-75.323900"
    }
  },
  {
    "model": "salesreps.postalcode",
    "pk": 2341,
    "fields": {
      "postal_code": "08086",
      "lat": "39.854714",
      "lng": "-75.198989"
    }
  },
  {
    "model": "salesreps.postalcode",
    "pk": 2342,
    "fields": {
      "postal_code": "08087",
      "lat": "39.596024",
      "lng": "-74.380808"
    }
  },
  {
    "model": "salesreps.postalcode",
    "pk": 2343,
    "fields": {
      "postal_code": "08088",
      "lat": "39.851449",
      "lng": "-74.693644"
    }
  },
  {
    "model": "salesreps.postalcode",
    "pk": 2344,
    "fields": {
      "postal_code": "08089",
      "lat": "39.717779",
      "lng": "-74.826567"
    }
  },
  {
    "model": "salesreps.postalcode",
    "pk": 2345,
    "fields": {
      "postal_code": "08090",
      "lat": "39.799082",
      "lng": "-75.150864"
    }
  },
  {
    "model": "salesreps.postalcode",
    "pk": 2346,
    "fields": {
      "postal_code": "08091",
      "lat": "39.807101",
      "lng": "-74.923972"
    }
  },
  {
    "model": "salesreps.postalcode",
    "pk": 2347,
    "fields": {
      "postal_code": "08092",
      "lat": "39.647131",
      "lng": "-74.284550"
    }
  },
  {
    "model": "salesreps.postalcode",
    "pk": 2348,
    "fields": {
      "postal_code": "08093",
      "lat": "39.864628",
      "lng": "-75.137688"
    }
  },
  {
    "model": "salesreps.postalcode",
    "pk": 2349,
    "fields": {
      "postal_code": "08094",
      "lat": "39.650570",
      "lng": "-74.959496"
    }
  },
  {
    "model": "salesreps.postalcode",
    "pk": 2350,
    "fields": {
      "postal_code": "08095",
      "lat": "39.649310",
      "lng": "-74.858081"
    }
  },
  {
    "model": "salesreps.postalcode",
    "pk": 2351,
    "fields": {
      "postal_code": "08096",
      "lat": "39.826871",
      "lng": "-75.126801"
    }
  },
  {
    "model": "salesreps.postalcode",
    "pk": 2352,
    "fields": {
      "postal_code": "08097",
      "lat": "39.813405",
      "lng": "-75.150864"
    }
  },
  {
    "model": "salesreps.postalcode",
    "pk": 2353,
    "fields": {
      "postal_code": "08098",
      "lat": "39.639512",
      "lng": "-75.329624"
    }
  },
  {
    "model": "salesreps.postalcode",
    "pk": 2354,
    "fields": {
      "postal_code": "08099",
      "lat": "39.859987",
      "lng": "-75.090130"
    }
  },
  {
    "model": "salesreps.postalcode",
    "pk": 2355,
    "fields": {
      "postal_code": "08101",
      "lat": "39.930003",
      "lng": "-75.099870"
    }
  },
  {
    "model": "salesreps.postalcode",
    "pk": 2356,
    "fields": {
      "postal_code": "08102",
      "lat": "39.952577",
      "lng": "-75.121071"
    }
  },
  {
    "model": "salesreps.postalcode",
    "pk": 2357,
    "fields": {
      "postal_code": "08103",
      "lat": "39.935846",
      "lng": "-75.114193"
    }
  },
  {
    "model": "salesreps.postalcode",
    "pk": 2358,
    "fields": {
      "postal_code": "08104",
      "lat": "39.916421",
      "lng": "-75.113045"
    }
  },
  {
    "model": "salesreps.postalcode",
    "pk": 2359,
    "fields": {
      "postal_code": "08105",
      "lat": "39.950343",
      "lng": "-75.096434"
    }
  },
  {
    "model": "salesreps.postalcode",
    "pk": 2360,
    "fields": {
      "postal_code": "08106",
      "lat": "39.890982",
      "lng": "-75.073512"
    }
  },
  {
    "model": "salesreps.postalcode",
    "pk": 2361,
    "fields": {
      "postal_code": "08107",
      "lat": "39.907829",
      "lng": "-75.083826"
    }
  },
  {
    "model": "salesreps.postalcode",
    "pk": 2362,
    "fields": {
      "postal_code": "08108",
      "lat": "39.914645",
      "lng": "-75.060910"
    }
  },
  {
    "model": "salesreps.postalcode",
    "pk": 2363,
    "fields": {
      "postal_code": "08109",
      "lat": "39.951317",
      "lng": "-75.050023"
    }
  },
  {
    "model": "salesreps.postalcode",
    "pk": 2364,
    "fields": {
      "postal_code": "08110",
      "lat": "39.971886",
      "lng": "-75.058042"
    }
  },
  {
    "model": "salesreps.postalcode",
    "pk": 2365,
    "fields": {
      "postal_code": "08201",
      "lat": "39.423565",
      "lng": "-74.493110"
    }
  },
  {
    "model": "salesreps.postalcode",
    "pk": 2366,
    "fields": {
      "postal_code": "08202",
      "lat": "39.095258",
      "lng": "-74.731456"
    }
  },
  {
    "model": "salesreps.postalcode",
    "pk": 2367,
    "fields": {
      "postal_code": "08203",
      "lat": "39.425628",
      "lng": "-74.392843"
    }
  },
  {
    "model": "salesreps.postalcode",
    "pk": 2368,
    "fields": {
      "postal_code": "08204",
      "lat": "38.971099",
      "lng": "-74.921110"
    }
  },
  {
    "model": "salesreps.postalcode",
    "pk": 2369,
    "fields": {
      "postal_code": "08205",
      "lat": "39.482008",
      "lng": "-74.452429"
    }
  },
  {
    "model": "salesreps.postalcode",
    "pk": 2370,
    "fields": {
      "postal_code": "08210",
      "lat": "39.121729",
      "lng": "-74.834592"
    }
  },
  {
    "model": "salesreps.postalcode",
    "pk": 2371,
    "fields": {
      "postal_code": "08212",
      "lat": "38.933455",
      "lng": "-74.953765"
    }
  },
  {
    "model": "salesreps.postalcode",
    "pk": 2372,
    "fields": {
      "postal_code": "08213",
      "lat": "39.510025",
      "lng": "-74.560141"
    }
  },
  {
    "model": "salesreps.postalcode",
    "pk": 2373,
    "fields": {
      "postal_code": "08214",
      "lat": "39.219991",
      "lng": "-74.850062"
    }
  },
  {
    "model": "salesreps.postalcode",
    "pk": 2374,
    "fields": {
      "postal_code": "08215",
      "lat": "39.586513",
      "lng": "-74.563584"
    }
  },
  {
    "model": "salesreps.postalcode",
    "pk": 2375,
    "fields": {
      "postal_code": "08217",
      "lat": "39.574195",
      "lng": "-74.720002"
    }
  },
  {
    "model": "salesreps.postalcode",
    "pk": 2376,
    "fields": {
      "postal_code": "08218",
      "lat": "39.109984",
      "lng": "-74.859802"
    }
  },
  {
    "model": "salesreps.postalcode",
    "pk": 2377,
    "fields": {
      "postal_code": "08219",
      "lat": "39.040026",
      "lng": "-74.910223"
    }
  },
  {
    "model": "salesreps.postalcode",
    "pk": 2378,
    "fields": {
      "postal_code": "08220",
      "lat": "39.490026",
      "lng": "-74.430081"
    }
  },
  {
    "model": "salesreps.postalcode",
    "pk": 2379,
    "fields": {
      "postal_code": "08221",
      "lat": "39.343693",
      "lng": "-74.571029"
    }
  },
  {
    "model": "salesreps.postalcode",
    "pk": 2380,
    "fields": {
      "postal_code": "08223",
      "lat": "39.278779",
      "lng": "-74.655825"
    }
  },
  {
    "model": "salesreps.postalcode",
    "pk": 2381,
    "fields": {
      "postal_code": "08224",
      "lat": "39.606337",
      "lng": "-74.466752"
    }
  },
  {
    "model": "salesreps.postalcode",
    "pk": 2382,
    "fields": {
      "postal_code": "08225",
      "lat": "39.362660",
      "lng": "-74.530922"
    }
  },
  {
    "model": "salesreps.postalcode",
    "pk": 2383,
    "fields": {
      "postal_code": "08226",
      "lat": "39.263653",
      "lng": "-74.607700"
    }
  },
  {
    "model": "salesreps.postalcode",
    "pk": 2384,
    "fields": {
      "postal_code": "08230",
      "lat": "39.207386",
      "lng": "-74.720002"
    }
  },
  {
    "model": "salesreps.postalcode",
    "pk": 2385,
    "fields": {
      "postal_code": "08231",
      "lat": "39.479999",
      "lng": "-74.470188"
    }
  },
  {
    "model": "salesreps.postalcode",
    "pk": 2386,
    "fields": {
      "postal_code": "08232",
      "lat": "39.387526",
      "lng": "-74.515451"
    }
  },
  {
    "model": "salesreps.postalcode",
    "pk": 2387,
    "fields": {
      "postal_code": "08234",
      "lat": "39.388386",
      "lng": "-74.620875"
    }
  },
  {
    "model": "salesreps.postalcode",
    "pk": 2388,
    "fields": {
      "postal_code": "08240",
      "lat": "39.488080",
      "lng": "-74.533790"
    }
  },
  {
    "model": "salesreps.postalcode",
    "pk": 2389,
    "fields": {
      "postal_code": "08241",
      "lat": "39.534774",
      "lng": "-74.475918"
    }
  },
  {
    "model": "salesreps.postalcode",
    "pk": 2390,
    "fields": {
      "postal_code": "08242",
      "lat": "39.018596",
      "lng": "-74.889022"
    }
  },
  {
    "model": "salesreps.postalcode",
    "pk": 2391,
    "fields": {
      "postal_code": "08243",
      "lat": "39.151010",
      "lng": "-74.696506"
    }
  },
  {
    "model": "salesreps.postalcode",
    "pk": 2392,
    "fields": {
      "postal_code": "08244",
      "lat": "39.318944",
      "lng": "-74.588220"
    }
  },
  {
    "model": "salesreps.postalcode",
    "pk": 2393,
    "fields": {
      "postal_code": "08245",
      "lat": "39.169974",
      "lng": "-74.820269"
    }
  },
  {
    "model": "salesreps.postalcode",
    "pk": 2394,
    "fields": {
      "postal_code": "08246",
      "lat": "39.180974",
      "lng": "-74.765832"
    }
  },
  {
    "model": "salesreps.postalcode",
    "pk": 2395,
    "fields": {
      "postal_code": "08247",
      "lat": "39.052286",
      "lng": "-74.783598"
    }
  },
  {
    "model": "salesreps.postalcode",
    "pk": 2396,
    "fields": {
      "postal_code": "08248",
      "lat": "39.195642",
      "lng": "-74.656973"
    }
  },
  {
    "model": "salesreps.postalcode",
    "pk": 2397,
    "fields": {
      "postal_code": "08250",
      "lat": "39.279981",
      "lng": "-74.780162"
    }
  },
  {
    "model": "salesreps.postalcode",
    "pk": 2398,
    "fields": {
      "postal_code": "08251",
      "lat": "39.027708",
      "lng": "-74.929702"
    }
  },
  {
    "model": "salesreps.postalcode",
    "pk": 2399,
    "fields": {
      "postal_code": "08252",
      "lat": "39.040026",
      "lng": "-74.859802"
    }
  },
  {
    "model": "salesreps.postalcode",
    "pk": 2400,
    "fields": {
      "postal_code": "08260",
      "lat": "38.998488",
      "lng": "-74.843184"
    }
  },
  {
    "model": "salesreps.postalcode",
    "pk": 2401,
    "fields": {
      "postal_code": "08270",
      "lat": "39.271788",
      "lng": "-74.785886"
    }
  },
  {
    "model": "salesreps.postalcode",
    "pk": 2402,
    "fields": {
      "postal_code": "08302",
      "lat": "39.438632",
      "lng": "-75.260871"
    }
  },
  {
    "model": "salesreps.postalcode",
    "pk": 2403,
    "fields": {
      "postal_code": "08310",
      "lat": "39.531451",
      "lng": "-74.897040"
    }
  },
  {
    "model": "salesreps.postalcode",
    "pk": 2404,
    "fields": {
      "postal_code": "08311",
      "lat": "39.327881",
      "lng": "-75.204146"
    }
  },
  {
    "model": "salesreps.postalcode",
    "pk": 2405,
    "fields": {
      "postal_code": "08312",
      "lat": "39.663749",
      "lng": "-75.077521"
    }
  },
  {
    "model": "salesreps.postalcode",
    "pk": 2406,
    "fields": {
      "postal_code": "08313",
      "lat": "39.490026",
      "lng": "-75.209877"
    }
  },
  {
    "model": "salesreps.postalcode",
    "pk": 2407,
    "fields": {
      "postal_code": "08314",
      "lat": "39.221825",
      "lng": "-74.940590"
    }
  },
  {
    "model": "salesreps.postalcode",
    "pk": 2408,
    "fields": {
      "postal_code": "08315",
      "lat": "39.219991",
      "lng": "-75.130237"
    }
  },
  {
    "model": "salesreps.postalcode",
    "pk": 2409,
    "fields": {
      "postal_code": "08316",
      "lat": "39.269555",
      "lng": "-74.949756"
    }
  },
  {
    "model": "salesreps.postalcode",
    "pk": 2410,
    "fields": {
      "postal_code": "08317",
      "lat": "39.400704",
      "lng": "-74.829435"
    }
  },
  {
    "model": "salesreps.postalcode",
    "pk": 2411,
    "fields": {
      "postal_code": "08318",
      "lat": "39.557751",
      "lng": "-75.177795"
    }
  },
  {
    "model": "salesreps.postalcode",
    "pk": 2412,
    "fields": {
      "postal_code": "08319",
      "lat": "39.370395",
      "lng": "-74.811096"
    }
  },
  {
    "model": "salesreps.postalcode",
    "pk": 2413,
    "fields": {
      "postal_code": "08320",
      "lat": "39.385063",
      "lng": "-75.160604"
    }
  },
  {
    "model": "salesreps.postalcode",
    "pk": 2414,
    "fields": {
      "postal_code": "08321",
      "lat": "39.223601",
      "lng": "-75.143412"
    }
  },
  {
    "model": "salesreps.postalcode",
    "pk": 2415,
    "fields": {
      "postal_code": "08322",
      "lat": "39.611095",
      "lng": "-75.048876"
    }
  },
  {
    "model": "salesreps.postalcode",
    "pk": 2416,
    "fields": {
      "postal_code": "08323",
      "lat": "39.396292",
      "lng": "-75.367442"
    }
  },
  {
    "model": "salesreps.postalcode",
    "pk": 2417,
    "fields": {
      "postal_code": "08324",
      "lat": "39.214606",
      "lng": "-74.996741"
    }
  },
  {
    "model": "salesreps.postalcode",
    "pk": 2418,
    "fields": {
      "postal_code": "08326",
      "lat": "39.537697",
      "lng": "-74.928555"
    }
  },
  {
    "model": "salesreps.postalcode",
    "pk": 2419,
    "fields": {
      "postal_code": "08327",
      "lat": "39.251506",
      "lng": "-74.962931"
    }
  },
  {
    "model": "salesreps.postalcode",
    "pk": 2420,
    "fields": {
      "postal_code": "08328",
      "lat": "39.578378",
      "lng": "-75.058615"
    }
  },
  {
    "model": "salesreps.postalcode",
    "pk": 2421,
    "fields": {
      "postal_code": "08329",
      "lat": "39.275971",
      "lng": "-75.007621"
    }
  },
  {
    "model": "salesreps.postalcode",
    "pk": 2422,
    "fields": {
      "postal_code": "08330",
      "lat": "39.481605",
      "lng": "-74.737187"
    }
  },
  {
    "model": "salesreps.postalcode",
    "pk": 2423,
    "fields": {
      "postal_code": "08332",
      "lat": "39.377041",
      "lng": "-75.023092"
    }
  },
  {
    "model": "salesreps.postalcode",
    "pk": 2424,
    "fields": {
      "postal_code": "08340",
      "lat": "39.437260",
      "lng": "-74.876413"
    }
  },
  {
    "model": "salesreps.postalcode",
    "pk": 2425,
    "fields": {
      "postal_code": "08341",
      "lat": "39.525437",
      "lng": "-74.953191"
    }
  },
  {
    "model": "salesreps.postalcode",
    "pk": 2426,
    "fields": {
      "postal_code": "08342",
      "lat": "39.460004",
      "lng": "-74.720002"
    }
  },
  {
    "model": "salesreps.postalcode",
    "pk": 2427,
    "fields": {
      "postal_code": "08343",
      "lat": "39.636305",
      "lng": "-75.167482"
    }
  },
  {
    "model": "salesreps.postalcode",
    "pk": 2428,
    "fields": {
      "postal_code": "08344",
      "lat": "39.561760",
      "lng": "-74.985853"
    }
  },
  {
    "model": "salesreps.postalcode",
    "pk": 2429,
    "fields": {
      "postal_code": "08345",
      "lat": "39.282446",
      "lng": "-75.160604"
    }
  },
  {
    "model": "salesreps.postalcode",
    "pk": 2430,
    "fields": {
      "postal_code": "08346",
      "lat": "39.566060",
      "lng": "-74.846053"
    }
  },
  {
    "model": "salesreps.postalcode",
    "pk": 2431,
    "fields": {
      "postal_code": "08347",
      "lat": "39.539989",
      "lng": "-75.130237"
    }
  },
  {
    "model": "salesreps.postalcode",
    "pk": 2432,
    "fields": {
      "postal_code": "08348",
      "lat": "39.309948",
      "lng": "-74.971530"
    }
  },
  {
    "model": "salesreps.postalcode",
    "pk": 2433,
    "fields": {
      "postal_code": "08349",
      "lat": "39.273851",
      "lng": "-75.071224"
    }
  },
  {
    "model": "salesreps.postalcode",
    "pk": 2434,
    "fields": {
      "postal_code": "08350",
      "lat": "39.488080",
      "lng": "-74.882144"
    }
  },
  {
    "model": "salesreps.postalcode",
    "pk": 2435,
    "fields": {
      "postal_code": "08352",
      "lat": "39.475703",
      "lng": "-75.127942"
    }
  },
  {
    "model": "salesreps.postalcode",
    "pk": 2436,
    "fields": {
      "postal_code": "08353",
      "lat": "39.462296",
      "lng": "-75.292385"
    }
  },
  {
    "model": "salesreps.postalcode",
    "pk": 2437,
    "fields": {
      "postal_code": "08360",
      "lat": "39.495528",
      "lng": "-75.008769"
    }
  },
  {
    "model": "salesreps.postalcode",
    "pk": 2438,
    "fields": {
      "postal_code": "08361",
      "lat": "39.449349",
      "lng": "-74.958922"
    }
  },
  {
    "model": "salesreps.postalcode",
    "pk": 2439,
    "fields": {
      "postal_code": "08362",
      "lat": "39.460004",
      "lng": "-74.989863"
    }
  },
  {
    "model": "salesreps.postalcode",
    "pk": 2440,
    "fields": {
      "postal_code": "08401",
      "lat": "39.377270",
      "lng": "-74.451282"
    }
  },
  {
    "model": "salesreps.postalcode",
    "pk": 2441,
    "fields": {
      "postal_code": "08402",
      "lat": "39.326392",
      "lng": "-74.504564"
    }
  },
  {
    "model": "salesreps.postalcode",
    "pk": 2442,
    "fields": {
      "postal_code": "08403",
      "lat": "39.318483",
      "lng": "-74.542383"
    }
  },
  {
    "model": "salesreps.postalcode",
    "pk": 2443,
    "fields": {
      "postal_code": "08404",
      "lat": "39.360024",
      "lng": "-74.419767"
    }
  },
  {
    "model": "salesreps.postalcode",
    "pk": 2444,
    "fields": {
      "postal_code": "08405",
      "lat": "39.360024",
      "lng": "-74.419767"
    }
  },
  {
    "model": "salesreps.postalcode",
    "pk": 2445,
    "fields": {
      "postal_code": "08406",
      "lat": "39.341575",
      "lng": "-74.481075"
    }
  },
  {
    "model": "salesreps.postalcode",
    "pk": 2446,
    "fields": {
      "postal_code": "08501",
      "lat": "40.163824",
      "lng": "-74.565872"
    }
  },
  {
    "model": "salesreps.postalcode",
    "pk": 2447,
    "fields": {
      "postal_code": "08502",
      "lat": "40.448244",
      "lng": "-74.652964"
    }
  },
  {
    "model": "salesreps.postalcode",
    "pk": 2448,
    "fields": {
      "postal_code": "08504",
      "lat": "40.399999",
      "lng": "-74.699948"
    }
  },
  {
    "model": "salesreps.postalcode",
    "pk": 2449,
    "fields": {
      "postal_code": "08505",
      "lat": "40.103094",
      "lng": "-74.733751"
    }
  },
  {
    "model": "salesreps.postalcode",
    "pk": 2450,
    "fields": {
      "postal_code": "08510",
      "lat": "40.191500",
      "lng": "-74.416905"
    }
  },
  {
    "model": "salesreps.postalcode",
    "pk": 2451,
    "fields": {
      "postal_code": "08511",
      "lat": "40.042360",
      "lng": "-74.557279"
    }
  },
  {
    "model": "salesreps.postalcode",
    "pk": 2452,
    "fields": {
      "postal_code": "08512",
      "lat": "40.324368",
      "lng": "-74.525765"
    }
  },
  {
    "model": "salesreps.postalcode",
    "pk": 2453,
    "fields": {
      "postal_code": "08514",
      "lat": "40.134260",
      "lng": "-74.491962"
    }
  },
  {
    "model": "salesreps.postalcode",
    "pk": 2454,
    "fields": {
      "postal_code": "08515",
      "lat": "40.119192",
      "lng": "-74.662703"
    }
  },
  {
    "model": "salesreps.postalcode",
    "pk": 2455,
    "fields": {
      "postal_code": "08518",
      "lat": "40.115412",
      "lng": "-74.801930"
    }
  },
  {
    "model": "salesreps.postalcode",
    "pk": 2456,
    "fields": {
      "postal_code": "08520",
      "lat": "40.255270",
      "lng": "-74.530348"
    }
  },
  {
    "model": "salesreps.postalcode",
    "pk": 2457,
    "fields": {
      "postal_code": "08525",
      "lat": "40.397649",
      "lng": "-74.779588"
    }
  },
  {
    "model": "salesreps.postalcode",
    "pk": 2458,
    "fields": {
      "postal_code": "08526",
      "lat": "40.159986",
      "lng": "-74.490241"
    }
  },
  {
    "model": "salesreps.postalcode",
    "pk": 2459,
    "fields": {
      "postal_code": "08527",
      "lat": "40.108708",
      "lng": "-74.358459"
    }
  },
  {
    "model": "salesreps.postalcode",
    "pk": 2460,
    "fields": {
      "postal_code": "08528",
      "lat": "40.387107",
      "lng": "-74.619161"
    }
  },
  {
    "model": "salesreps.postalcode",
    "pk": 2461,
    "fields": {
      "postal_code": "08530",
      "lat": "40.370035",
      "lng": "-74.910223"
    }
  },
  {
    "model": "salesreps.postalcode",
    "pk": 2462,
    "fields": {
      "postal_code": "08533",
      "lat": "40.071005",
      "lng": "-74.499981"
    }
  },
  {
    "model": "salesreps.postalcode",
    "pk": 2463,
    "fields": {
      "postal_code": "08534",
      "lat": "40.329412",
      "lng": "-74.792764"
    }
  },
  {
    "model": "salesreps.postalcode",
    "pk": 2464,
    "fields": {
      "postal_code": "08535",
      "lat": "40.244441",
      "lng": "-74.431802"
    }
  },
  {
    "model": "salesreps.postalcode",
    "pk": 2465,
    "fields": {
      "postal_code": "08536",
      "lat": "40.332274",
      "lng": "-74.581342"
    }
  },
  {
    "model": "salesreps.postalcode",
    "pk": 2466,
    "fields": {
      "postal_code": "08540",
      "lat": "40.362986",
      "lng": "-74.655252"
    }
  },
  {
    "model": "salesreps.postalcode",
    "pk": 2467,
    "fields": {
      "postal_code": "08541",
      "lat": "40.349981",
      "lng": "-74.650095"
    }
  },
  {
    "model": "salesreps.postalcode",
    "pk": 2468,
    "fields": {
      "postal_code": "08542",
      "lat": "40.352901",
      "lng": "-74.660408"
    }
  },
  {
    "model": "salesreps.postalcode",
    "pk": 2469,
    "fields": {
      "postal_code": "08543",
      "lat": "40.349981",
      "lng": "-74.650095"
    }
  },
  {
    "model": "salesreps.postalcode",
    "pk": 2470,
    "fields": {
      "postal_code": "08544",
      "lat": "40.349981",
      "lng": "-74.650095"
    }
  },
  {
    "model": "salesreps.postalcode",
    "pk": 2471,
    "fields": {
      "postal_code": "08550",
      "lat": "40.280136",
      "lng": "-74.614578"
    }
  },
  {
    "model": "salesreps.postalcode",
    "pk": 2472,
    "fields": {
      "postal_code": "08551",
      "lat": "40.447096",
      "lng": "-74.837454"
    }
  },
  {
    "model": "salesreps.postalcode",
    "pk": 2473,
    "fields": {
      "postal_code": "08553",
      "lat": "40.400344",
      "lng": "-74.638641"
    }
  },
  {
    "model": "salesreps.postalcode",
    "pk": 2474,
    "fields": {
      "postal_code": "08554",
      "lat": "40.117246",
      "lng": "-74.777867"
    }
  },
  {
    "model": "salesreps.postalcode",
    "pk": 2475,
    "fields": {
      "postal_code": "08555",
      "lat": "40.218258",
      "lng": "-74.470761"
    }
  },
  {
    "model": "salesreps.postalcode",
    "pk": 2476,
    "fields": {
      "postal_code": "08556",
      "lat": "40.419994",
      "lng": "-74.989863"
    }
  },
  {
    "model": "salesreps.postalcode",
    "pk": 2477,
    "fields": {
      "postal_code": "08557",
      "lat": "40.450020",
      "lng": "-74.940016"
    }
  },
  {
    "model": "salesreps.postalcode",
    "pk": 2478,
    "fields": {
      "postal_code": "08558",
      "lat": "40.413406",
      "lng": "-74.703958"
    }
  },
  {
    "model": "salesreps.postalcode",
    "pk": 2479,
    "fields": {
      "postal_code": "08559",
      "lat": "40.429218",
      "lng": "-74.978975"
    }
  },
  {
    "model": "salesreps.postalcode",
    "pk": 2480,
    "fields": {
      "postal_code": "08560",
      "lat": "40.315718",
      "lng": "-74.857507"
    }
  },
  {
    "model": "salesreps.postalcode",
    "pk": 2481,
    "fields": {
      "postal_code": "08561",
      "lat": "40.251087",
      "lng": "-74.580768"
    }
  },
  {
    "model": "salesreps.postalcode",
    "pk": 2482,
    "fields": {
      "postal_code": "08562",
      "lat": "40.061955",
      "lng": "-74.591656"
    }
  },
  {
    "model": "salesreps.postalcode",
    "pk": 2483,
    "fields": {
      "postal_code": "08601",
      "lat": "40.219975",
      "lng": "-74.760109"
    }
  },
  {
    "model": "salesreps.postalcode",
    "pk": 2484,
    "fields": {
      "postal_code": "08602",
      "lat": "40.219975",
      "lng": "-74.760109"
    }
  },
  {
    "model": "salesreps.postalcode",
    "pk": 2485,
    "fields": {
      "postal_code": "08603",
      "lat": "40.219975",
      "lng": "-74.760109"
    }
  },
  {
    "model": "salesreps.postalcode",
    "pk": 2486,
    "fields": {
      "postal_code": "08604",
      "lat": "40.219975",
      "lng": "-74.760109"
    }
  },
  {
    "model": "salesreps.postalcode",
    "pk": 2487,
    "fields": {
      "postal_code": "08605",
      "lat": "40.219975",
      "lng": "-74.760109"
    }
  },
  {
    "model": "salesreps.postalcode",
    "pk": 2488,
    "fields": {
      "postal_code": "08606",
      "lat": "40.219975",
      "lng": "-74.760109"
    }
  },
  {
    "model": "salesreps.postalcode",
    "pk": 2489,
    "fields": {
      "postal_code": "08607",
      "lat": "40.219975",
      "lng": "-74.760109"
    }
  },
  {
    "model": "salesreps.postalcode",
    "pk": 2490,
    "fields": {
      "postal_code": "08608",
      "lat": "40.219289",
      "lng": "-74.767554"
    }
  },
  {
    "model": "salesreps.postalcode",
    "pk": 2491,
    "fields": {
      "postal_code": "08609",
      "lat": "40.225764",
      "lng": "-74.740622"
    }
  },
  {
    "model": "salesreps.postalcode",
    "pk": 2492,
    "fields": {
      "postal_code": "08610",
      "lat": "40.191155",
      "lng": "-74.716559"
    }
  },
  {
    "model": "salesreps.postalcode",
    "pk": 2493,
    "fields": {
      "postal_code": "08611",
      "lat": "40.183594",
      "lng": "-74.740055"
    }
  },
  {
    "model": "salesreps.postalcode",
    "pk": 2494,
    "fields": {
      "postal_code": "08618",
      "lat": "40.249369",
      "lng": "-74.789902"
    }
  },
  {
    "model": "salesreps.postalcode",
    "pk": 2495,
    "fields": {
      "postal_code": "08619",
      "lat": "40.242320",
      "lng": "-74.696506"
    }
  },
  {
    "model": "salesreps.postalcode",
    "pk": 2496,
    "fields": {
      "postal_code": "08620",
      "lat": "40.170071",
      "lng": "-74.651242"
    }
  },
  {
    "model": "salesreps.postalcode",
    "pk": 2497,
    "fields": {
      "postal_code": "08625",
      "lat": "40.219975",
      "lng": "-74.760109"
    }
  },
  {
    "model": "salesreps.postalcode",
    "pk": 2498,
    "fields": {
      "postal_code": "08628",
      "lat": "40.264436",
      "lng": "-74.827140"
    }
  },
  {
    "model": "salesreps.postalcode",
    "pk": 2499,
    "fields": {
      "postal_code": "08629",
      "lat": "40.220662",
      "lng": "-74.731456"
    }
  },
  {
    "model": "salesreps.postalcode",
    "pk": 2500,
    "fields": {
      "postal_code": "08638",
      "lat": "40.254010",
      "lng": "-74.763544"
    }
  },
  {
    "model": "salesreps.postalcode",
    "pk": 2501,
    "fields": {
      "postal_code": "08640",
      "lat": "40.004428",
      "lng": "-74.591082"
    }
  },
  {
    "model": "salesreps.postalcode",
    "pk": 2502,
    "fields": {
      "postal_code": "08641",
      "lat": "40.020298",
      "lng": "-74.589935"
    }
  },
  {
    "model": "salesreps.postalcode",
    "pk": 2503,
    "fields": {
      "postal_code": "08645",
      "lat": "40.219975",
      "lng": "-74.760109"
    }
  },
  {
    "model": "salesreps.postalcode",
    "pk": 2504,
    "fields": {
      "postal_code": "08646",
      "lat": "40.219975",
      "lng": "-74.760109"
    }
  },
  {
    "model": "salesreps.postalcode",
    "pk": 2505,
    "fields": {
      "postal_code": "08647",
      "lat": "40.219975",
      "lng": "-74.760109"
    }
  },
  {
    "model": "salesreps.postalcode",
    "pk": 2506,
    "fields": {
      "postal_code": "08648",
      "lat": "40.284319",
      "lng": "-74.717707"
    }
  },
  {
    "model": "salesreps.postalcode",
    "pk": 2507,
    "fields": {
      "postal_code": "08650",
      "lat": "40.219975",
      "lng": "-74.760109"
    }
  },
  {
    "model": "salesreps.postalcode",
    "pk": 2508,
    "fields": {
      "postal_code": "08666",
      "lat": "40.219975",
      "lng": "-74.760109"
    }
  },
  {
    "model": "salesreps.postalcode",
    "pk": 2510,
    "fields": {
      "postal_code": "08690",
      "lat": "40.224500",
      "lng": "-74.660408"
    }
  },
  {
    "model": "salesreps.postalcode",
    "pk": 2511,
    "fields": {
      "postal_code": "08691",
      "lat": "40.208746",
      "lng": "-74.592230"
    }
  },
  {
    "model": "salesreps.postalcode",
    "pk": 2512,
    "fields": {
      "postal_code": "08695",
      "lat": "40.219975",
      "lng": "-74.760109"
    }
  },
  {
    "model": "salesreps.postalcode",
    "pk": 2513,
    "fields": {
      "postal_code": "08701",
      "lat": "40.077023",
      "lng": "-74.200327"
    }
  },
  {
    "model": "salesreps.postalcode",
    "pk": 2514,
    "fields": {
      "postal_code": "08720",
      "lat": "40.135349",
      "lng": "-74.097765"
    }
  },
  {
    "model": "salesreps.postalcode",
    "pk": 2515,
    "fields": {
      "postal_code": "08721",
      "lat": "39.901986",
      "lng": "-74.152768"
    }
  },
  {
    "model": "salesreps.postalcode",
    "pk": 2516,
    "fields": {
      "postal_code": "08722",
      "lat": "39.928398",
      "lng": "-74.202048"
    }
  },
  {
    "model": "salesreps.postalcode",
    "pk": 2517,
    "fields": {
      "postal_code": "08723",
      "lat": "40.038576",
      "lng": "-74.111521"
    }
  },
  {
    "model": "salesreps.postalcode",
    "pk": 2518,
    "fields": {
      "postal_code": "08724",
      "lat": "40.086247",
      "lng": "-74.110947"
    }
  },
  {
    "model": "salesreps.postalcode",
    "pk": 2519,
    "fields": {
      "postal_code": "08730",
      "lat": "40.105385",
      "lng": "-74.063388"
    }
  },
  {
    "model": "salesreps.postalcode",
    "pk": 2520,
    "fields": {
      "postal_code": "08731",
      "lat": "39.865659",
      "lng": "-74.258766"
    }
  },
  {
    "model": "salesreps.postalcode",
    "pk": 2521,
    "fields": {
      "postal_code": "08732",
      "lat": "39.941806",
      "lng": "-74.143602"
    }
  },
  {
    "model": "salesreps.postalcode",
    "pk": 2522,
    "fields": {
      "postal_code": "08733",
      "lat": "40.023795",
      "lng": "-74.320648"
    }
  },
  {
    "model": "salesreps.postalcode",
    "pk": 2523,
    "fields": {
      "postal_code": "08734",
      "lat": "39.862736",
      "lng": "-74.172248"
    }
  },
  {
    "model": "salesreps.postalcode",
    "pk": 2524,
    "fields": {
      "postal_code": "08735",
      "lat": "39.982025",
      "lng": "-74.070840"
    }
  },
  {
    "model": "salesreps.postalcode",
    "pk": 2525,
    "fields": {
      "postal_code": "08736",
      "lat": "40.119995",
      "lng": "-74.053075"
    }
  },
  {
    "model": "salesreps.postalcode",
    "pk": 2526,
    "fields": {
      "postal_code": "08738",
      "lat": "40.022706",
      "lng": "-74.058805"
    }
  },
  {
    "model": "salesreps.postalcode",
    "pk": 2527,
    "fields": {
      "postal_code": "08739",
      "lat": "40.000016",
      "lng": "-74.059953"
    }
  },
  {
    "model": "salesreps.postalcode",
    "pk": 2528,
    "fields": {
      "postal_code": "08740",
      "lat": "39.927712",
      "lng": "-74.130427"
    }
  },
  {
    "model": "salesreps.postalcode",
    "pk": 2529,
    "fields": {
      "postal_code": "08741",
      "lat": "39.937106",
      "lng": "-74.167098"
    }
  },
  {
    "model": "salesreps.postalcode",
    "pk": 2530,
    "fields": {
      "postal_code": "08742",
      "lat": "40.080803",
      "lng": "-74.059379"
    }
  },
  {
    "model": "salesreps.postalcode",
    "pk": 2531,
    "fields": {
      "postal_code": "08750",
      "lat": "40.133345",
      "lng": "-74.041614"
    }
  },
  {
    "model": "salesreps.postalcode",
    "pk": 2532,
    "fields": {
      "postal_code": "08751",
      "lat": "39.951887",
      "lng": "-74.088025"
    }
  },
  {
    "model": "salesreps.postalcode",
    "pk": 2533,
    "fields": {
      "postal_code": "08752",
      "lat": "39.842512",
      "lng": "-74.093182"
    }
  },
  {
    "model": "salesreps.postalcode",
    "pk": 2534,
    "fields": {
      "postal_code": "08753",
      "lat": "39.979047",
      "lng": "-74.160220"
    }
  },
  {
    "model": "salesreps.postalcode",
    "pk": 2535,
    "fields": {
      "postal_code": "08754",
      "lat": "39.949998",
      "lng": "-74.180274"
    }
  },
  {
    "model": "salesreps.postalcode",
    "pk": 2536,
    "fields": {
      "postal_code": "08755",
      "lat": "40.008554",
      "lng": "-74.221528"
    }
  },
  {
    "model": "salesreps.postalcode",
    "pk": 2537,
    "fields": {
      "postal_code": "08756",
      "lat": "39.949998",
      "lng": "-74.180274"
    }
  },
  {
    "model": "salesreps.postalcode",
    "pk": 2538,
    "fields": {
      "postal_code": "08757",
      "lat": "39.942376",
      "lng": "-74.251321"
    }
  },
  {
    "model": "salesreps.postalcode",
    "pk": 2539,
    "fields": {
      "postal_code": "08758",
      "lat": "39.778970",
      "lng": "-74.238713"
    }
  },
  {
    "model": "salesreps.postalcode",
    "pk": 2540,
    "fields": {
      "postal_code": "08759",
      "lat": "39.975267",
      "lng": "-74.344710"
    }
  },
  {
    "model": "salesreps.postalcode",
    "pk": 2541,
    "fields": {
      "postal_code": "08801",
      "lat": "40.622765",
      "lng": "-74.886160"
    }
  },
  {
    "model": "salesreps.postalcode",
    "pk": 2542,
    "fields": {
      "postal_code": "08802",
      "lat": "40.671007",
      "lng": "-75.017935"
    }
  },
  {
    "model": "salesreps.postalcode",
    "pk": 2543,
    "fields": {
      "postal_code": "08803",
      "lat": "40.490010",
      "lng": "-75.000176"
    }
  },
  {
    "model": "salesreps.postalcode",
    "pk": 2544,
    "fields": {
      "postal_code": "08804",
      "lat": "40.646657",
      "lng": "-75.095860"
    }
  },
  {
    "model": "salesreps.postalcode",
    "pk": 2545,
    "fields": {
      "postal_code": "08805",
      "lat": "40.573892",
      "lng": "-74.537226"
    }
  },
  {
    "model": "salesreps.postalcode",
    "pk": 2546,
    "fields": {
      "postal_code": "08807",
      "lat": "40.592456",
      "lng": "-74.618587"
    }
  },
  {
    "model": "salesreps.postalcode",
    "pk": 2547,
    "fields": {
      "postal_code": "08808",
      "lat": "40.732144",
      "lng": "-75.048876"
    }
  },
  {
    "model": "salesreps.postalcode",
    "pk": 2548,
    "fields": {
      "postal_code": "08809",
      "lat": "40.651814",
      "lng": "-74.934285"
    }
  },
  {
    "model": "salesreps.postalcode",
    "pk": 2549,
    "fields": {
      "postal_code": "08810",
      "lat": "40.368313",
      "lng": "-74.490815"
    }
  },
  {
    "model": "salesreps.postalcode",
    "pk": 2550,
    "fields": {
      "postal_code": "08812",
      "lat": "40.598757",
      "lng": "-74.478787"
    }
  },
  {
    "model": "salesreps.postalcode",
    "pk": 2551,
    "fields": {
      "postal_code": "08816",
      "lat": "40.429105",
      "lng": "-74.416332"
    }
  },
  {
    "model": "salesreps.postalcode",
    "pk": 2552,
    "fields": {
      "postal_code": "08817",
      "lat": "40.514647",
      "lng": "-74.392843"
    }
  },
  {
    "model": "salesreps.postalcode",
    "pk": 2553,
    "fields": {
      "postal_code": "08818",
      "lat": "40.519978",
      "lng": "-74.360181"
    }
  },
  {
    "model": "salesreps.postalcode",
    "pk": 2554,
    "fields": {
      "postal_code": "08820",
      "lat": "40.576815",
      "lng": "-74.365911"
    }
  },
  {
    "model": "salesreps.postalcode",
    "pk": 2555,
    "fields": {
      "postal_code": "08821",
      "lat": "40.520032",
      "lng": "-74.685619"
    }
  },
  {
    "model": "salesreps.postalcode",
    "pk": 2556,
    "fields": {
      "postal_code": "08822",
      "lat": "40.525076",
      "lng": "-74.865533"
    }
  },
  {
    "model": "salesreps.postalcode",
    "pk": 2557,
    "fields": {
      "postal_code": "08823",
      "lat": "40.439245",
      "lng": "-74.570455"
    }
  },
  {
    "model": "salesreps.postalcode",
    "pk": 2558,
    "fields": {
      "postal_code": "08824",
      "lat": "40.422115",
      "lng": "-74.553270"
    }
  },
  {
    "model": "salesreps.postalcode",
    "pk": 2559,
    "fields": {
      "postal_code": "08825",
      "lat": "40.514189",
      "lng": "-75.027108"
    }
  },
  {
    "model": "salesreps.postalcode",
    "pk": 2560,
    "fields": {
      "postal_code": "08826",
      "lat": "40.716557",
      "lng": "-74.911937"
    }
  },
  {
    "model": "salesreps.postalcode",
    "pk": 2561,
    "fields": {
      "postal_code": "08827",
      "lat": "40.668428",
      "lng": "-74.968662"
    }
  },
  {
    "model": "salesreps.postalcode",
    "pk": 2562,
    "fields": {
      "postal_code": "08828",
      "lat": "40.378569",
      "lng": "-74.423777"
    }
  },
  {
    "model": "salesreps.postalcode",
    "pk": 2563,
    "fields": {
      "postal_code": "08829",
      "lat": "40.670034",
      "lng": "-74.890169"
    }
  },
  {
    "model": "salesreps.postalcode",
    "pk": 2564,
    "fields": {
      "postal_code": "08830",
      "lat": "40.569596",
      "lng": "-74.314917"
    }
  },
  {
    "model": "salesreps.postalcode",
    "pk": 2565,
    "fields": {
      "postal_code": "08831",
      "lat": "40.319498",
      "lng": "-74.428933"
    }
  },
  {
    "model": "salesreps.postalcode",
    "pk": 2566,
    "fields": {
      "postal_code": "08832",
      "lat": "40.517225",
      "lng": "-74.306898"
    }
  },
  {
    "model": "salesreps.postalcode",
    "pk": 2567,
    "fields": {
      "postal_code": "08833",
      "lat": "40.645568",
      "lng": "-74.816253"
    }
  },
  {
    "model": "salesreps.postalcode",
    "pk": 2568,
    "fields": {
      "postal_code": "08834",
      "lat": "40.600017",
      "lng": "-75.050023"
    }
  },
  {
    "model": "salesreps.postalcode",
    "pk": 2569,
    "fields": {
      "postal_code": "08835",
      "lat": "40.541291",
      "lng": "-74.589368"
    }
  },
  {
    "model": "salesreps.postalcode",
    "pk": 2570,
    "fields": {
      "postal_code": "08836",
      "lat": "40.596353",
      "lng": "-74.557279"
    }
  },
  {
    "model": "salesreps.postalcode",
    "pk": 2571,
    "fields": {
      "postal_code": "08837",
      "lat": "40.513100",
      "lng": "-74.344137"
    }
  },
  {
    "model": "salesreps.postalcode",
    "pk": 2572,
    "fields": {
      "postal_code": "08840",
      "lat": "40.543125",
      "lng": "-74.359033"
    }
  },
  {
    "model": "salesreps.postalcode",
    "pk": 2573,
    "fields": {
      "postal_code": "08844",
      "lat": "40.497687",
      "lng": "-74.670722"
    }
  },
  {
    "model": "salesreps.postalcode",
    "pk": 2574,
    "fields": {
      "postal_code": "08846",
      "lat": "40.574636",
      "lng": "-74.498267"
    }
  },
  {
    "model": "salesreps.postalcode",
    "pk": 2575,
    "fields": {
      "postal_code": "08848",
      "lat": "40.594290",
      "lng": "-75.096434"
    }
  },
  {
    "model": "salesreps.postalcode",
    "pk": 2576,
    "fields": {
      "postal_code": "08850",
      "lat": "40.447899",
      "lng": "-74.439247"
    }
  },
  {
    "model": "salesreps.postalcode",
    "pk": 2577,
    "fields": {
      "postal_code": "08852",
      "lat": "40.388254",
      "lng": "-74.549828"
    }
  },
  {
    "model": "salesreps.postalcode",
    "pk": 2578,
    "fields": {
      "postal_code": "08853",
      "lat": "40.529946",
      "lng": "-74.742343"
    }
  },
  {
    "model": "salesreps.postalcode",
    "pk": 2579,
    "fields": {
      "postal_code": "08854",
      "lat": "40.545646",
      "lng": "-74.461022"
    }
  },
  {
    "model": "salesreps.postalcode",
    "pk": 2580,
    "fields": {
      "postal_code": "08855",
      "lat": "40.510006",
      "lng": "-74.450134"
    }
  },
  {
    "model": "salesreps.postalcode",
    "pk": 2581,
    "fields": {
      "postal_code": "08857",
      "lat": "40.392779",
      "lng": "-74.330387"
    }
  },
  {
    "model": "salesreps.postalcode",
    "pk": 2582,
    "fields": {
      "postal_code": "08858",
      "lat": "40.682581",
      "lng": "-74.737187"
    }
  },
  {
    "model": "salesreps.postalcode",
    "pk": 2583,
    "fields": {
      "postal_code": "08859",
      "lat": "40.458841",
      "lng": "-74.302889"
    }
  },
  {
    "model": "salesreps.postalcode",
    "pk": 2584,
    "fields": {
      "postal_code": "08861",
      "lat": "40.520493",
      "lng": "-74.273089"
    }
  },
  {
    "model": "salesreps.postalcode",
    "pk": 2585,
    "fields": {
      "postal_code": "08862",
      "lat": "40.519978",
      "lng": "-74.270227"
    }
  },
  {
    "model": "salesreps.postalcode",
    "pk": 2586,
    "fields": {
      "postal_code": "08863",
      "lat": "40.527426",
      "lng": "-74.316065"
    }
  },
  {
    "model": "salesreps.postalcode",
    "pk": 2587,
    "fields": {
      "postal_code": "08865",
      "lat": "40.708252",
      "lng": "-75.146855"
    }
  },
  {
    "model": "salesreps.postalcode",
    "pk": 2588,
    "fields": {
      "postal_code": "08867",
      "lat": "40.574237",
      "lng": "-74.966374"
    }
  },
  {
    "model": "salesreps.postalcode",
    "pk": 2589,
    "fields": {
      "postal_code": "08868",
      "lat": "40.550000",
      "lng": "-74.940016"
    }
  },
  {
    "model": "salesreps.postalcode",
    "pk": 2590,
    "fields": {
      "postal_code": "08869",
      "lat": "40.571371",
      "lng": "-74.646086"
    }
  },
  {
    "model": "salesreps.postalcode",
    "pk": 2591,
    "fields": {
      "postal_code": "08870",
      "lat": "40.569995",
      "lng": "-74.729742"
    }
  },
  {
    "model": "salesreps.postalcode",
    "pk": 2592,
    "fields": {
      "postal_code": "08871",
      "lat": "40.459988",
      "lng": "-74.320074"
    }
  },
  {
    "model": "salesreps.postalcode",
    "pk": 2593,
    "fields": {
      "postal_code": "08872",
      "lat": "40.444347",
      "lng": "-74.356745"
    }
  },
  {
    "model": "salesreps.postalcode",
    "pk": 2594,
    "fields": {
      "postal_code": "08873",
      "lat": "40.496598",
      "lng": "-74.532069"
    }
  },
  {
    "model": "salesreps.postalcode",
    "pk": 2595,
    "fields": {
      "postal_code": "08875",
      "lat": "40.490010",
      "lng": "-74.479928"
    }
  },
  {
    "model": "salesreps.postalcode",
    "pk": 2596,
    "fields": {
      "postal_code": "08876",
      "lat": "40.589533",
      "lng": "-74.685619"
    }
  },
  {
    "model": "salesreps.postalcode",
    "pk": 2597,
    "fields": {
      "postal_code": "08879",
      "lat": "40.466405",
      "lng": "-74.278819"
    }
  },
  {
    "model": "salesreps.postalcode",
    "pk": 2598,
    "fields": {
      "postal_code": "08880",
      "lat": "40.553951",
      "lng": "-74.527486"
    }
  },
  {
    "model": "salesreps.postalcode",
    "pk": 2599,
    "fields": {
      "postal_code": "08882",
      "lat": "40.445665",
      "lng": "-74.378513"
    }
  },
  {
    "model": "salesreps.postalcode",
    "pk": 2600,
    "fields": {
      "postal_code": "08884",
      "lat": "40.397649",
      "lng": "-74.389400"
    }
  },
  {
    "model": "salesreps.postalcode",
    "pk": 2601,
    "fields": {
      "postal_code": "08885",
      "lat": "40.580022",
      "lng": "-74.809955"
    }
  },
  {
    "model": "salesreps.postalcode",
    "pk": 2602,
    "fields": {
      "postal_code": "08886",
      "lat": "40.687509",
      "lng": "-75.101017"
    }
  },
  {
    "model": "salesreps.postalcode",
    "pk": 2603,
    "fields": {
      "postal_code": "08887",
      "lat": "40.521293",
      "lng": "-74.795059"
    }
  },
  {
    "model": "salesreps.postalcode",
    "pk": 2604,
    "fields": {
      "postal_code": "08888",
      "lat": "40.620016",
      "lng": "-74.760109"
    }
  },
  {
    "model": "salesreps.postalcode",
    "pk": 2605,
    "fields": {
      "postal_code": "08889",
      "lat": "40.609013",
      "lng": "-74.754378"
    }
  },
  {
    "model": "salesreps.postalcode",
    "pk": 2606,
    "fields": {
      "postal_code": "08890",
      "lat": "40.539054",
      "lng": "-74.575612"
    }
  },
  {
    "model": "salesreps.postalcode",
    "pk": 2608,
    "fields": {
      "postal_code": "08899",
      "lat": "40.519978",
      "lng": "-74.360181"
    }
  },
  {
    "model": "salesreps.postalcode",
    "pk": 2609,
    "fields": {
      "postal_code": "08901",
      "lat": "40.483651",
      "lng": "-74.442689"
    }
  },
  {
    "model": "salesreps.postalcode",
    "pk": 2610,
    "fields": {
      "postal_code": "08902",
      "lat": "40.439190",
      "lng": "-74.484511"
    }
  },
  {
    "model": "salesreps.postalcode",
    "pk": 2611,
    "fields": {
      "postal_code": "08903",
      "lat": "40.479984",
      "lng": "-74.439821"
    }
  },
  {
    "model": "salesreps.postalcode",
    "pk": 2612,
    "fields": {
      "postal_code": "08904",
      "lat": "40.500781",
      "lng": "-74.427793"
    }
  },
  {
    "model": "salesreps.postalcode",
    "pk": 2613,
    "fields": {
      "postal_code": "08905",
      "lat": "40.479984",
      "lng": "-74.439821"
    }
  },
  {
    "model": "salesreps.postalcode",
    "pk": 2614,
    "fields": {
      "postal_code": "08906",
      "lat": "40.479984",
      "lng": "-74.439821"
    }
  },
  {
    "model": "salesreps.postalcode",
    "pk": 2615,
    "fields": {
      "postal_code": "08922",
      "lat": "40.479984",
      "lng": "-74.450134"
    }
  },
  {
    "model": "salesreps.postalcode",
    "pk": 2616,
    "fields": {
      "postal_code": "08933",
      "lat": "40.479984",
      "lng": "-74.439821"
    }
  },
  {
    "model": "salesreps.postalcode",
    "pk": 2617,
    "fields": {
      "postal_code": "08988",
      "lat": "40.450020",
      "lng": "-74.479928"
    }
  },
  {
    "model": "salesreps.postalcode",
    "pk": 2618,
    "fields": {
      "postal_code": "08989",
      "lat": "40.479984",
      "lng": "-74.439821"
    }
  },
  {
    "model": "salesreps.postalcode",
    "pk": 2619,
    "fields": {
      "postal_code": "10910",
      "lat": "41.281551",
      "lng": "-74.137872"
    }
  },
  {
    "model": "salesreps.postalcode",
    "pk": 2620,
    "fields": {
      "postal_code": "10912",
      "lat": "41.249982",
      "lng": "-74.340127"
    }
  },
  {
    "model": "salesreps.postalcode",
    "pk": 2621,
    "fields": {
      "postal_code": "10914",
      "lat": "41.417745",
      "lng": "-74.199753"
    }
  },
  {
    "model": "salesreps.postalcode",
    "pk": 2622,
    "fields": {
      "postal_code": "10915",
      "lat": "41.545343",
      "lng": "-74.359033"
    }
  },
  {
    "model": "salesreps.postalcode",
    "pk": 2623,
    "fields": {
      "postal_code": "10916",
      "lat": "41.442323",
      "lng": "-74.250747"
    }
  },
  {
    "model": "salesreps.postalcode",
    "pk": 2624,
    "fields": {
      "postal_code": "10917",
      "lat": "41.319653",
      "lng": "-74.117818"
    }
  },
  {
    "model": "salesreps.postalcode",
    "pk": 2625,
    "fields": {
      "postal_code": "10918",
      "lat": "41.344177",
      "lng": "-74.262208"
    }
  },
  {
    "model": "salesreps.postalcode",
    "pk": 2626,
    "fields": {
      "postal_code": "10919",
      "lat": "41.525976",
      "lng": "-74.387686"
    }
  },
  {
    "model": "salesreps.postalcode",
    "pk": 2627,
    "fields": {
      "postal_code": "10921",
      "lat": "41.332087",
      "lng": "-74.363616"
    }
  },
  {
    "model": "salesreps.postalcode",
    "pk": 2628,
    "fields": {
      "postal_code": "10922",
      "lat": "41.332774",
      "lng": "-73.996350"
    }
  },
  {
    "model": "salesreps.postalcode",
    "pk": 2629,
    "fields": {
      "postal_code": "10924",
      "lat": "41.381019",
      "lng": "-74.352736"
    }
  },
  {
    "model": "salesreps.postalcode",
    "pk": 2630,
    "fields": {
      "postal_code": "10925",
      "lat": "41.198188",
      "lng": "-74.314917"
    }
  },
  {
    "model": "salesreps.postalcode",
    "pk": 2631,
    "fields": {
      "postal_code": "10926",
      "lat": "41.301833",
      "lng": "-74.119539"
    }
  },
  {
    "model": "salesreps.postalcode",
    "pk": 2632,
    "fields": {
      "postal_code": "10928",
      "lat": "41.348989",
      "lng": "-73.998645"
    }
  },
  {
    "model": "salesreps.postalcode",
    "pk": 2633,
    "fields": {
      "postal_code": "10930",
      "lat": "41.366235",
      "lng": "-74.121261"
    }
  },
  {
    "model": "salesreps.postalcode",
    "pk": 2634,
    "fields": {
      "postal_code": "10932",
      "lat": "41.482143",
      "lng": "-74.464457"
    }
  },
  {
    "model": "salesreps.postalcode",
    "pk": 2635,
    "fields": {
      "postal_code": "10933",
      "lat": "41.368011",
      "lng": "-74.513163"
    }
  },
  {
    "model": "salesreps.postalcode",
    "pk": 2636,
    "fields": {
      "postal_code": "10940",
      "lat": "41.446565",
      "lng": "-74.478787"
    }
  },
  {
    "model": "salesreps.postalcode",
    "pk": 2637,
    "fields": {
      "postal_code": "10941",
      "lat": "41.487300",
      "lng": "-74.344710"
    }
  },
  {
    "model": "salesreps.postalcode",
    "pk": 2638,
    "fields": {
      "postal_code": "10943",
      "lat": "41.439973",
      "lng": "-74.419767"
    }
  },
  {
    "model": "salesreps.postalcode",
    "pk": 2639,
    "fields": {
      "postal_code": "10949",
      "lat": "41.330024",
      "lng": "-74.190013"
    }
  },
  {
    "model": "salesreps.postalcode",
    "pk": 2640,
    "fields": {
      "postal_code": "10950",
      "lat": "41.317361",
      "lng": "-74.199753"
    }
  },
  {
    "model": "salesreps.postalcode",
    "pk": 2641,
    "fields": {
      "postal_code": "10953",
      "lat": "41.404965",
      "lng": "-74.077711"
    }
  },
  {
    "model": "salesreps.postalcode",
    "pk": 2642,
    "fields": {
      "postal_code": "10958",
      "lat": "41.371907",
      "lng": "-74.432376"
    }
  },
  {
    "model": "salesreps.postalcode",
    "pk": 2643,
    "fields": {
      "postal_code": "10959",
      "lat": "41.260008",
      "lng": "-74.360181"
    }
  },
  {
    "model": "salesreps.postalcode",
    "pk": 2644,
    "fields": {
      "postal_code": "10963",
      "lat": "41.463524",
      "lng": "-74.543530"
    }
  },
  {
    "model": "salesreps.postalcode",
    "pk": 2645,
    "fields": {
      "postal_code": "10969",
      "lat": "41.294846",
      "lng": "-74.487953"
    }
  },
  {
    "model": "salesreps.postalcode",
    "pk": 2646,
    "fields": {
      "postal_code": "10973",
      "lat": "41.380503",
      "lng": "-74.480501"
    }
  },
  {
    "model": "salesreps.postalcode",
    "pk": 2647,
    "fields": {
      "postal_code": "10975",
      "lat": "41.267057",
      "lng": "-74.172248"
    }
  },
  {
    "model": "salesreps.postalcode",
    "pk": 2648,
    "fields": {
      "postal_code": "10979",
      "lat": "41.182831",
      "lng": "-74.314917"
    }
  },
  {
    "model": "salesreps.postalcode",
    "pk": 2649,
    "fields": {
      "postal_code": "10981",
      "lat": "41.319998",
      "lng": "-74.270227"
    }
  },
  {
    "model": "salesreps.postalcode",
    "pk": 2650,
    "fields": {
      "postal_code": "10985",
      "lat": "41.583500",
      "lng": "-74.373363"
    }
  },
  {
    "model": "salesreps.postalcode",
    "pk": 2651,
    "fields": {
      "postal_code": "10987",
      "lat": "41.186956",
      "lng": "-74.237565"
    }
  },
  {
    "model": "salesreps.postalcode",
    "pk": 2652,
    "fields": {
      "postal_code": "10988",
      "lat": "41.302065",
      "lng": "-74.548687"
    }
  },
  {
    "model": "salesreps.postalcode",
    "pk": 2653,
    "fields": {
      "postal_code": "10990",
      "lat": "41.267457",
      "lng": "-74.364190"
    }
  },
  {
    "model": "salesreps.postalcode",
    "pk": 2654,
    "fields": {
      "postal_code": "10992",
      "lat": "41.426108",
      "lng": "-74.164803"
    }
  },
  {
    "model": "salesreps.postalcode",
    "pk": 2655,
    "fields": {
      "postal_code": "10996",
      "lat": "41.393678",
      "lng": "-73.972287"
    }
  },
  {
    "model": "salesreps.postalcode",
    "pk": 2656,
    "fields": {
      "postal_code": "10997",
      "lat": "41.359989",
      "lng": "-74.019846"
    }
  },
  {
    "model": "salesreps.postalcode",
    "pk": 2657,
    "fields": {
      "postal_code": "10998",
      "lat": "41.324065",
      "lng": "-74.541235"
    }
  },
  {
    "model": "salesreps.postalcode",
    "pk": 2658,
    "fields": {
      "postal_code": "12518",
      "lat": "41.416140",
      "lng": "-74.043335"
    }
  },
  {
    "model": "salesreps.postalcode",
    "pk": 2659,
    "fields": {
      "postal_code": "12520",
      "lat": "41.428000",
      "lng": "-73.996350"
    }
  },
  {
    "model": "salesreps.postalcode",
    "pk": 2660,
    "fields": {
      "postal_code": "12543",
      "lat": "41.495493",
      "lng": "-74.172822"
    }
  },
  {
    "model": "salesreps.postalcode",
    "pk": 2661,
    "fields": {
      "postal_code": "12549",
      "lat": "41.528039",
      "lng": "-74.259340"
    }
  },
  {
    "model": "salesreps.postalcode",
    "pk": 2662,
    "fields": {
      "postal_code": "12550",
      "lat": "41.539554",
      "lng": "-74.057084"
    }
  },
  {
    "model": "salesreps.postalcode",
    "pk": 2663,
    "fields": {
      "postal_code": "12551",
      "lat": "41.500021",
      "lng": "-74.019846"
    }
  },
  {
    "model": "salesreps.postalcode",
    "pk": 2664,
    "fields": {
      "postal_code": "12552",
      "lat": "41.500021",
      "lng": "-74.019846"
    }
  },
  {
    "model": "salesreps.postalcode",
    "pk": 2665,
    "fields": {
      "postal_code": "12553",
      "lat": "41.455731",
      "lng": "-74.074850"
    }
  },
  {
    "model": "salesreps.postalcode",
    "pk": 2666,
    "fields": {
      "postal_code": "12555",
      "lat": "41.529985",
      "lng": "-74.039899"
    }
  },
  {
    "model": "salesreps.postalcode",
    "pk": 2667,
    "fields": {
      "postal_code": "12566",
      "lat": "41.633521",
      "lng": "-74.319500"
    }
  },
  {
    "model": "salesreps.postalcode",
    "pk": 2668,
    "fields": {
      "postal_code": "12575",
      "lat": "41.466731",
      "lng": "-74.179126"
    }
  },
  {
    "model": "salesreps.postalcode",
    "pk": 2669,
    "fields": {
      "postal_code": "12577",
      "lat": "41.424045",
      "lng": "-74.122401"
    }
  },
  {
    "model": "salesreps.postalcode",
    "pk": 2670,
    "fields": {
      "postal_code": "12584",
      "lat": "41.450000",
      "lng": "-74.050213"
    }
  },
  {
    "model": "salesreps.postalcode",
    "pk": 2671,
    "fields": {
      "postal_code": "12586",
      "lat": "41.562760",
      "lng": "-74.169960"
    }
  },
  {
    "model": "salesreps.postalcode",
    "pk": 2672,
    "fields": {
      "postal_code": "12729",
      "lat": "41.475784",
      "lng": "-74.623744"
    }
  },
  {
    "model": "salesreps.postalcode",
    "pk": 2673,
    "fields": {
      "postal_code": "12746",
      "lat": "41.442323",
      "lng": "-74.656973"
    }
  },
  {
    "model": "salesreps.postalcode",
    "pk": 2674,
    "fields": {
      "postal_code": "12771",
      "lat": "41.374370",
      "lng": "-74.624318"
    }
  },
  {
    "model": "salesreps.postalcode",
    "pk": 2675,
    "fields": {
      "postal_code": "12780",
      "lat": "41.440148",
      "lng": "-74.727447"
    }
  },
  {
    "model": "salesreps.postalcode",
    "pk": 2676,
    "fields": {
      "postal_code": "10501",
      "lat": "41.295590",
      "lng": "-73.758578"
    }
  },
  {
    "model": "salesreps.postalcode",
    "pk": 2677,
    "fields": {
      "postal_code": "10502",
      "lat": "41.011574",
      "lng": "-73.841653"
    }
  },
  {
    "model": "salesreps.postalcode",
    "pk": 2678,
    "fields": {
      "postal_code": "10503",
      "lat": "41.026528",
      "lng": "-73.875456"
    }
  },
  {
    "model": "salesreps.postalcode",
    "pk": 2679,
    "fields": {
      "postal_code": "10504",
      "lat": "41.128459",
      "lng": "-73.707583"
    }
  },
  {
    "model": "salesreps.postalcode",
    "pk": 2680,
    "fields": {
      "postal_code": "10505",
      "lat": "41.342114",
      "lng": "-73.745395"
    }
  },
  {
    "model": "salesreps.postalcode",
    "pk": 2681,
    "fields": {
      "postal_code": "10506",
      "lat": "41.190395",
      "lng": "-73.639398"
    }
  },
  {
    "model": "salesreps.postalcode",
    "pk": 2682,
    "fields": {
      "postal_code": "10507",
      "lat": "41.227923",
      "lng": "-73.685809"
    }
  },
  {
    "model": "salesreps.postalcode",
    "pk": 2683,
    "fields": {
      "postal_code": "10510",
      "lat": "41.139459",
      "lng": "-73.835923"
    }
  },
  {
    "model": "salesreps.postalcode",
    "pk": 2684,
    "fields": {
      "postal_code": "10511",
      "lat": "41.265452",
      "lng": "-73.943068"
    }
  },
  {
    "model": "salesreps.postalcode",
    "pk": 2685,
    "fields": {
      "postal_code": "10514",
      "lat": "41.172175",
      "lng": "-73.769465"
    }
  },
  {
    "model": "salesreps.postalcode",
    "pk": 2686,
    "fields": {
      "postal_code": "10517",
      "lat": "41.298227",
      "lng": "-73.861707"
    }
  },
  {
    "model": "salesreps.postalcode",
    "pk": 2687,
    "fields": {
      "postal_code": "10518",
      "lat": "41.266138",
      "lng": "-73.588410"
    }
  },
  {
    "model": "salesreps.postalcode",
    "pk": 2688,
    "fields": {
      "postal_code": "10519",
      "lat": "41.352369",
      "lng": "-73.652580"
    }
  },
  {
    "model": "salesreps.postalcode",
    "pk": 2689,
    "fields": {
      "postal_code": "10520",
      "lat": "41.226489",
      "lng": "-73.868011"
    }
  },
  {
    "model": "salesreps.postalcode",
    "pk": 2690,
    "fields": {
      "postal_code": "10521",
      "lat": "41.220017",
      "lng": "-73.889786"
    }
  },
  {
    "model": "salesreps.postalcode",
    "pk": 2691,
    "fields": {
      "postal_code": "10522",
      "lat": "41.010314",
      "lng": "-73.864002"
    }
  },
  {
    "model": "salesreps.postalcode",
    "pk": 2692,
    "fields": {
      "postal_code": "10523",
      "lat": "41.059358",
      "lng": "-73.819312"
    }
  },
  {
    "model": "salesreps.postalcode",
    "pk": 2693,
    "fields": {
      "postal_code": "10526",
      "lat": "41.288084",
      "lng": "-73.668624"
    }
  },
  {
    "model": "salesreps.postalcode",
    "pk": 2694,
    "fields": {
      "postal_code": "10527",
      "lat": "41.321200",
      "lng": "-73.770032"
    }
  },
  {
    "model": "salesreps.postalcode",
    "pk": 2695,
    "fields": {
      "postal_code": "10528",
      "lat": "40.975077",
      "lng": "-73.724768"
    }
  },
  {
    "model": "salesreps.postalcode",
    "pk": 2696,
    "fields": {
      "postal_code": "10530",
      "lat": "41.023721",
      "lng": "-73.813007"
    }
  },
  {
    "model": "salesreps.postalcode",
    "pk": 2697,
    "fields": {
      "postal_code": "10532",
      "lat": "41.099294",
      "lng": "-73.800399"
    }
  },
  {
    "model": "salesreps.postalcode",
    "pk": 2698,
    "fields": {
      "postal_code": "10533",
      "lat": "41.036900",
      "lng": "-73.854835"
    }
  },
  {
    "model": "salesreps.postalcode",
    "pk": 2699,
    "fields": {
      "postal_code": "10535",
      "lat": "41.335181",
      "lng": "-73.794101"
    }
  },
  {
    "model": "salesreps.postalcode",
    "pk": 2700,
    "fields": {
      "postal_code": "10536",
      "lat": "41.269120",
      "lng": "-73.688677"
    }
  },
  {
    "model": "salesreps.postalcode",
    "pk": 2701,
    "fields": {
      "postal_code": "10538",
      "lat": "40.937777",
      "lng": "-73.756283"
    }
  },
  {
    "model": "salesreps.postalcode",
    "pk": 2702,
    "fields": {
      "postal_code": "10540",
      "lat": "41.300002",
      "lng": "-73.709872"
    }
  },
  {
    "model": "salesreps.postalcode",
    "pk": 2703,
    "fields": {
      "postal_code": "10543",
      "lat": "40.952674",
      "lng": "-73.736229"
    }
  },
  {
    "model": "salesreps.postalcode",
    "pk": 2704,
    "fields": {
      "postal_code": "10545",
      "lat": "41.178592",
      "lng": "-73.835349"
    }
  },
  {
    "model": "salesreps.postalcode",
    "pk": 2705,
    "fields": {
      "postal_code": "10546",
      "lat": "41.195610",
      "lng": "-73.800973"
    }
  },
  {
    "model": "salesreps.postalcode",
    "pk": 2706,
    "fields": {
      "postal_code": "10547",
      "lat": "41.313352",
      "lng": "-73.846236"
    }
  },
  {
    "model": "salesreps.postalcode",
    "pk": 2707,
    "fields": {
      "postal_code": "10548",
      "lat": "41.245685",
      "lng": "-73.932754"
    }
  },
  {
    "model": "salesreps.postalcode",
    "pk": 2708,
    "fields": {
      "postal_code": "10549",
      "lat": "41.200592",
      "lng": "-73.723628"
    }
  },
  {
    "model": "salesreps.postalcode",
    "pk": 2709,
    "fields": {
      "postal_code": "10550",
      "lat": "40.905463",
      "lng": "-73.835349"
    }
  },
  {
    "model": "salesreps.postalcode",
    "pk": 2710,
    "fields": {
      "postal_code": "10551",
      "lat": "40.909988",
      "lng": "-73.819885"
    }
  },
  {
    "model": "salesreps.postalcode",
    "pk": 2711,
    "fields": {
      "postal_code": "10552",
      "lat": "40.924485",
      "lng": "-73.826183"
    }
  },
  {
    "model": "salesreps.postalcode",
    "pk": 2712,
    "fields": {
      "postal_code": "10553",
      "lat": "40.908557",
      "lng": "-73.821600"
    }
  },
  {
    "model": "salesreps.postalcode",
    "pk": 2713,
    "fields": {
      "postal_code": "10557",
      "lat": "40.900020",
      "lng": "-73.819885"
    }
  },
  {
    "model": "salesreps.postalcode",
    "pk": 2714,
    "fields": {
      "postal_code": "10558",
      "lat": "40.900020",
      "lng": "-73.819885"
    }
  },
  {
    "model": "salesreps.postalcode",
    "pk": 2715,
    "fields": {
      "postal_code": "10560",
      "lat": "41.340509",
      "lng": "-73.597576"
    }
  },
  {
    "model": "salesreps.postalcode",
    "pk": 2716,
    "fields": {
      "postal_code": "10562",
      "lat": "41.194462",
      "lng": "-73.825042"
    }
  },
  {
    "model": "salesreps.postalcode",
    "pk": 2717,
    "fields": {
      "postal_code": "10566",
      "lat": "41.289460",
      "lng": "-73.916710"
    }
  },
  {
    "model": "salesreps.postalcode",
    "pk": 2718,
    "fields": {
      "postal_code": "10567",
      "lat": "41.289573",
      "lng": "-73.897230"
    }
  },
  {
    "model": "salesreps.postalcode",
    "pk": 2719,
    "fields": {
      "postal_code": "10570",
      "lat": "41.130060",
      "lng": "-73.786650"
    }
  },
  {
    "model": "salesreps.postalcode",
    "pk": 2720,
    "fields": {
      "postal_code": "10571",
      "lat": "41.130006",
      "lng": "-73.790085"
    }
  },
  {
    "model": "salesreps.postalcode",
    "pk": 2721,
    "fields": {
      "postal_code": "10572",
      "lat": "41.130006",
      "lng": "-73.790085"
    }
  },
  {
    "model": "salesreps.postalcode",
    "pk": 2722,
    "fields": {
      "postal_code": "10573",
      "lat": "41.015870",
      "lng": "-73.677216"
    }
  },
  {
    "model": "salesreps.postalcode",
    "pk": 2723,
    "fields": {
      "postal_code": "10576",
      "lat": "41.221565",
      "lng": "-73.572366"
    }
  },
  {
    "model": "salesreps.postalcode",
    "pk": 2724,
    "fields": {
      "postal_code": "10577",
      "lat": "41.038389",
      "lng": "-73.711019"
    }
  },
  {
    "model": "salesreps.postalcode",
    "pk": 2725,
    "fields": {
      "postal_code": "10578",
      "lat": "41.320285",
      "lng": "-73.678938"
    }
  },
  {
    "model": "salesreps.postalcode",
    "pk": 2726,
    "fields": {
      "postal_code": "10580",
      "lat": "40.979031",
      "lng": "-73.693261"
    }
  },
  {
    "model": "salesreps.postalcode",
    "pk": 2727,
    "fields": {
      "postal_code": "10583",
      "lat": "40.988655",
      "lng": "-73.788945"
    }
  },
  {
    "model": "salesreps.postalcode",
    "pk": 2728,
    "fields": {
      "postal_code": "10587",
      "lat": "41.300002",
      "lng": "-73.709872"
    }
  },
  {
    "model": "salesreps.postalcode",
    "pk": 2729,
    "fields": {
      "postal_code": "10588",
      "lat": "41.336612",
      "lng": "-73.819885"
    }
  },
  {
    "model": "salesreps.postalcode",
    "pk": 2730,
    "fields": {
      "postal_code": "10589",
      "lat": "41.334150",
      "lng": "-73.714461"
    }
  },
  {
    "model": "salesreps.postalcode",
    "pk": 2731,
    "fields": {
      "postal_code": "10590",
      "lat": "41.255254",
      "lng": "-73.539130"
    }
  },
  {
    "model": "salesreps.postalcode",
    "pk": 2732,
    "fields": {
      "postal_code": "10591",
      "lat": "41.090070",
      "lng": "-73.841079"
    }
  },
  {
    "model": "salesreps.postalcode",
    "pk": 2733,
    "fields": {
      "postal_code": "10594",
      "lat": "41.113446",
      "lng": "-73.774048"
    }
  },
  {
    "model": "salesreps.postalcode",
    "pk": 2734,
    "fields": {
      "postal_code": "10595",
      "lat": "41.085886",
      "lng": "-73.782640"
    }
  },
  {
    "model": "salesreps.postalcode",
    "pk": 2735,
    "fields": {
      "postal_code": "10596",
      "lat": "41.256286",
      "lng": "-73.959112"
    }
  },
  {
    "model": "salesreps.postalcode",
    "pk": 2736,
    "fields": {
      "postal_code": "10597",
      "lat": "41.293012",
      "lng": "-73.596429"
    }
  },
  {
    "model": "salesreps.postalcode",
    "pk": 2737,
    "fields": {
      "postal_code": "10598",
      "lat": "41.288200",
      "lng": "-73.792380"
    }
  },
  {
    "model": "salesreps.postalcode",
    "pk": 2738,
    "fields": {
      "postal_code": "10601",
      "lat": "41.032945",
      "lng": "-73.764875"
    }
  },
  {
    "model": "salesreps.postalcode",
    "pk": 2739,
    "fields": {
      "postal_code": "10602",
      "lat": "41.019995",
      "lng": "-73.749978"
    }
  },
  {
    "model": "salesreps.postalcode",
    "pk": 2740,
    "fields": {
      "postal_code": "10603",
      "lat": "41.054375",
      "lng": "-73.779205"
    }
  },
  {
    "model": "salesreps.postalcode",
    "pk": 2741,
    "fields": {
      "postal_code": "10604",
      "lat": "41.071505",
      "lng": "-73.747117"
    }
  },
  {
    "model": "salesreps.postalcode",
    "pk": 2742,
    "fields": {
      "postal_code": "10605",
      "lat": "41.010542",
      "lng": "-73.745395"
    }
  },
  {
    "model": "salesreps.postalcode",
    "pk": 2743,
    "fields": {
      "postal_code": "10606",
      "lat": "41.020569",
      "lng": "-73.775762"
    }
  },
  {
    "model": "salesreps.postalcode",
    "pk": 2744,
    "fields": {
      "postal_code": "10607",
      "lat": "41.039076",
      "lng": "-73.811286"
    }
  },
  {
    "model": "salesreps.postalcode",
    "pk": 2745,
    "fields": {
      "postal_code": "10610",
      "lat": "41.019995",
      "lng": "-73.749978"
    }
  },
  {
    "model": "salesreps.postalcode",
    "pk": 2746,
    "fields": {
      "postal_code": "10701",
      "lat": "40.945396",
      "lng": "-73.880613"
    }
  },
  {
    "model": "salesreps.postalcode",
    "pk": 2747,
    "fields": {
      "postal_code": "10702",
      "lat": "40.940010",
      "lng": "-73.859992"
    }
  },
  {
    "model": "salesreps.postalcode",
    "pk": 2748,
    "fields": {
      "postal_code": "10703",
      "lat": "40.959835",
      "lng": "-73.880046"
    }
  },
  {
    "model": "salesreps.postalcode",
    "pk": 2749,
    "fields": {
      "postal_code": "10704",
      "lat": "40.919728",
      "lng": "-73.862854"
    }
  },
  {
    "model": "salesreps.postalcode",
    "pk": 2750,
    "fields": {
      "postal_code": "10705",
      "lat": "40.919728",
      "lng": "-73.889786"
    }
  },
  {
    "model": "salesreps.postalcode",
    "pk": 2751,
    "fields": {
      "postal_code": "10706",
      "lat": "40.989803",
      "lng": "-73.867437"
    }
  },
  {
    "model": "salesreps.postalcode",
    "pk": 2752,
    "fields": {
      "postal_code": "10707",
      "lat": "40.960525",
      "lng": "-73.822747"
    }
  },
  {
    "model": "salesreps.postalcode",
    "pk": 2753,
    "fields": {
      "postal_code": "10708",
      "lat": "40.938293",
      "lng": "-73.830192"
    }
  },
  {
    "model": "salesreps.postalcode",
    "pk": 2754,
    "fields": {
      "postal_code": "10709",
      "lat": "40.954624",
      "lng": "-73.808424"
    }
  },
  {
    "model": "salesreps.postalcode",
    "pk": 2755,
    "fields": {
      "postal_code": "10710",
      "lat": "40.967171",
      "lng": "-73.846236"
    }
  },
  {
    "model": "salesreps.postalcode",
    "pk": 2756,
    "fields": {
      "postal_code": "10801",
      "lat": "40.917553",
      "lng": "-73.784929"
    }
  },
  {
    "model": "salesreps.postalcode",
    "pk": 2757,
    "fields": {
      "postal_code": "10802",
      "lat": "40.920015",
      "lng": "-73.770032"
    }
  },
  {
    "model": "salesreps.postalcode",
    "pk": 2758,
    "fields": {
      "postal_code": "10803",
      "lat": "40.900477",
      "lng": "-73.807277"
    }
  },
  {
    "model": "salesreps.postalcode",
    "pk": 2759,
    "fields": {
      "postal_code": "10804",
      "lat": "40.946830",
      "lng": "-73.787797"
    }
  },
  {
    "model": "salesreps.postalcode",
    "pk": 2760,
    "fields": {
      "postal_code": "10805",
      "lat": "40.897728",
      "lng": "-73.779205"
    }
  },
  {
    "model": "salesreps.postalcode",
    "pk": 2761,
    "fields": {
      "postal_code": "14410",
      "lat": "43.190018",
      "lng": "-77.859806"
    }
  },
  {
    "model": "salesreps.postalcode",
    "pk": 2762,
    "fields": {
      "postal_code": "14420",
      "lat": "43.211731",
      "lng": "-77.934289"
    }
  },
  {
    "model": "salesreps.postalcode",
    "pk": 2763,
    "fields": {
      "postal_code": "14428",
      "lat": "43.080523",
      "lng": "-77.853508"
    }
  },
  {
    "model": "salesreps.postalcode",
    "pk": 2764,
    "fields": {
      "postal_code": "14430",
      "lat": "43.210014",
      "lng": "-77.930280"
    }
  },
  {
    "model": "salesreps.postalcode",
    "pk": 2765,
    "fields": {
      "postal_code": "14445",
      "lat": "43.113069",
      "lng": "-77.490251"
    }
  },
  {
    "model": "salesreps.postalcode",
    "pk": 2766,
    "fields": {
      "postal_code": "14450",
      "lat": "43.092500",
      "lng": "-77.420351"
    }
  },
  {
    "model": "salesreps.postalcode",
    "pk": 2767,
    "fields": {
      "postal_code": "14464",
      "lat": "43.327069",
      "lng": "-77.932001"
    }
  },
  {
    "model": "salesreps.postalcode",
    "pk": 2768,
    "fields": {
      "postal_code": "14467",
      "lat": "43.036349",
      "lng": "-77.612293"
    }
  },
  {
    "model": "salesreps.postalcode",
    "pk": 2769,
    "fields": {
      "postal_code": "14468",
      "lat": "43.293953",
      "lng": "-77.801940"
    }
  },
  {
    "model": "salesreps.postalcode",
    "pk": 2770,
    "fields": {
      "postal_code": "14472",
      "lat": "42.966794",
      "lng": "-77.575048"
    }
  },
  {
    "model": "salesreps.postalcode",
    "pk": 2771,
    "fields": {
      "postal_code": "14506",
      "lat": "43.005525",
      "lng": "-77.516609"
    }
  },
  {
    "model": "salesreps.postalcode",
    "pk": 2772,
    "fields": {
      "postal_code": "14508",
      "lat": "43.320021",
      "lng": "-78.050026"
    }
  },
  {
    "model": "salesreps.postalcode",
    "pk": 2773,
    "fields": {
      "postal_code": "14511",
      "lat": "42.999394",
      "lng": "-77.891894"
    }
  },
  {
    "model": "salesreps.postalcode",
    "pk": 2774,
    "fields": {
      "postal_code": "14514",
      "lat": "43.109917",
      "lng": "-77.815116"
    }
  },
  {
    "model": "salesreps.postalcode",
    "pk": 2775,
    "fields": {
      "postal_code": "14515",
      "lat": "43.250004",
      "lng": "-77.729745"
    }
  },
  {
    "model": "salesreps.postalcode",
    "pk": 2776,
    "fields": {
      "postal_code": "14526",
      "lat": "43.151458",
      "lng": "-77.444414"
    }
  },
  {
    "model": "salesreps.postalcode",
    "pk": 2777,
    "fields": {
      "postal_code": "14534",
      "lat": "43.056918",
      "lng": "-77.521192"
    }
  },
  {
    "model": "salesreps.postalcode",
    "pk": 2778,
    "fields": {
      "postal_code": "14543",
      "lat": "42.983808",
      "lng": "-77.678751"
    }
  },
  {
    "model": "salesreps.postalcode",
    "pk": 2779,
    "fields": {
      "postal_code": "14546",
      "lat": "43.032681",
      "lng": "-77.780166"
    }
  },
  {
    "model": "salesreps.postalcode",
    "pk": 2780,
    "fields": {
      "postal_code": "14559",
      "lat": "43.189960",
      "lng": "-77.819125"
    }
  },
  {
    "model": "salesreps.postalcode",
    "pk": 2781,
    "fields": {
      "postal_code": "14580",
      "lat": "43.217291",
      "lng": "-77.444414"
    }
  },
  {
    "model": "salesreps.postalcode",
    "pk": 2782,
    "fields": {
      "postal_code": "14586",
      "lat": "43.041677",
      "lng": "-77.689638"
    }
  },
  {
    "model": "salesreps.postalcode",
    "pk": 2783,
    "fields": {
      "postal_code": "14602",
      "lat": "43.159993",
      "lng": "-77.609998"
    }
  },
  {
    "model": "salesreps.postalcode",
    "pk": 2784,
    "fields": {
      "postal_code": "14603",
      "lat": "43.159993",
      "lng": "-77.609998"
    }
  },
  {
    "model": "salesreps.postalcode",
    "pk": 2785,
    "fields": {
      "postal_code": "14604",
      "lat": "43.156212",
      "lng": "-77.604842"
    }
  },
  {
    "model": "salesreps.postalcode",
    "pk": 2786,
    "fields": {
      "postal_code": "14605",
      "lat": "43.168418",
      "lng": "-77.602547"
    }
  },
  {
    "model": "salesreps.postalcode",
    "pk": 2787,
    "fields": {
      "postal_code": "14606",
      "lat": "43.171051",
      "lng": "-77.698231"
    }
  },
  {
    "model": "salesreps.postalcode",
    "pk": 2788,
    "fields": {
      "postal_code": "14607",
      "lat": "43.150769",
      "lng": "-77.586509"
    }
  },
  {
    "model": "salesreps.postalcode",
    "pk": 2789,
    "fields": {
      "postal_code": "14608",
      "lat": "43.154091",
      "lng": "-77.623174"
    }
  },
  {
    "model": "salesreps.postalcode",
    "pk": 2790,
    "fields": {
      "postal_code": "14609",
      "lat": "43.177068",
      "lng": "-77.554995"
    }
  },
  {
    "model": "salesreps.postalcode",
    "pk": 2791,
    "fields": {
      "postal_code": "14610",
      "lat": "43.142347",
      "lng": "-77.545255"
    }
  },
  {
    "model": "salesreps.postalcode",
    "pk": 2792,
    "fields": {
      "postal_code": "14611",
      "lat": "43.148306",
      "lng": "-77.647243"
    }
  },
  {
    "model": "salesreps.postalcode",
    "pk": 2793,
    "fields": {
      "postal_code": "14612",
      "lat": "43.266335",
      "lng": "-77.676463"
    }
  },
  {
    "model": "salesreps.postalcode",
    "pk": 2794,
    "fields": {
      "postal_code": "14613",
      "lat": "43.182167",
      "lng": "-77.640365"
    }
  },
  {
    "model": "salesreps.postalcode",
    "pk": 2795,
    "fields": {
      "postal_code": "14614",
      "lat": "43.157414",
      "lng": "-77.615155"
    }
  },
  {
    "model": "salesreps.postalcode",
    "pk": 2796,
    "fields": {
      "postal_code": "14615",
      "lat": "43.201189",
      "lng": "-77.654688"
    }
  },
  {
    "model": "salesreps.postalcode",
    "pk": 2797,
    "fields": {
      "postal_code": "14616",
      "lat": "43.234650",
      "lng": "-77.657557"
    }
  },
  {
    "model": "salesreps.postalcode",
    "pk": 2798,
    "fields": {
      "postal_code": "14617",
      "lat": "43.225484",
      "lng": "-77.593381"
    }
  },
  {
    "model": "salesreps.postalcode",
    "pk": 2799,
    "fields": {
      "postal_code": "14618",
      "lat": "43.114558",
      "lng": "-77.554995"
    }
  },
  {
    "model": "salesreps.postalcode",
    "pk": 2800,
    "fields": {
      "postal_code": "14619",
      "lat": "43.136446",
      "lng": "-77.649532"
    }
  },
  {
    "model": "salesreps.postalcode",
    "pk": 2801,
    "fields": {
      "postal_code": "14620",
      "lat": "43.128311",
      "lng": "-77.605989"
    }
  },
  {
    "model": "salesreps.postalcode",
    "pk": 2802,
    "fields": {
      "postal_code": "14621",
      "lat": "43.189960",
      "lng": "-77.603694"
    }
  },
  {
    "model": "salesreps.postalcode",
    "pk": 2803,
    "fields": {
      "postal_code": "14622",
      "lat": "43.215744",
      "lng": "-77.552126"
    }
  },
  {
    "model": "salesreps.postalcode",
    "pk": 2804,
    "fields": {
      "postal_code": "14623",
      "lat": "43.087343",
      "lng": "-77.642087"
    }
  },
  {
    "model": "salesreps.postalcode",
    "pk": 2805,
    "fields": {
      "postal_code": "14624",
      "lat": "43.128311",
      "lng": "-77.731466"
    }
  },
  {
    "model": "salesreps.postalcode",
    "pk": 2806,
    "fields": {
      "postal_code": "14625",
      "lat": "43.150024",
      "lng": "-77.505722"
    }
  },
  {
    "model": "salesreps.postalcode",
    "pk": 2807,
    "fields": {
      "postal_code": "14626",
      "lat": "43.216543",
      "lng": "-77.710839"
    }
  },
  {
    "model": "salesreps.postalcode",
    "pk": 2808,
    "fields": {
      "postal_code": "14627",
      "lat": "43.128652",
      "lng": "-77.628904"
    }
  },
  {
    "model": "salesreps.postalcode",
    "pk": 2809,
    "fields": {
      "postal_code": "14638",
      "lat": "43.159993",
      "lng": "-77.609998"
    }
  },
  {
    "model": "salesreps.postalcode",
    "pk": 2810,
    "fields": {
      "postal_code": "14639",
      "lat": "43.159993",
      "lng": "-77.609998"
    }
  },
  {
    "model": "salesreps.postalcode",
    "pk": 2811,
    "fields": {
      "postal_code": "14642",
      "lat": "43.159993",
      "lng": "-77.609998"
    }
  },
  {
    "model": "salesreps.postalcode",
    "pk": 2812,
    "fields": {
      "postal_code": "14643",
      "lat": "43.159993",
      "lng": "-77.609998"
    }
  },
  {
    "model": "salesreps.postalcode",
    "pk": 2813,
    "fields": {
      "postal_code": "14644",
      "lat": "43.159993",
      "lng": "-77.609998"
    }
  },
  {
    "model": "salesreps.postalcode",
    "pk": 2814,
    "fields": {
      "postal_code": "14645",
      "lat": "43.150024",
      "lng": "-77.600259"
    }
  },
  {
    "model": "salesreps.postalcode",
    "pk": 2815,
    "fields": {
      "postal_code": "14646",
      "lat": "43.159993",
      "lng": "-77.609998"
    }
  },
  {
    "model": "salesreps.postalcode",
    "pk": 2816,
    "fields": {
      "postal_code": "14647",
      "lat": "43.159993",
      "lng": "-77.609998"
    }
  },
  {
    "model": "salesreps.postalcode",
    "pk": 2817,
    "fields": {
      "postal_code": "14649",
      "lat": "43.159993",
      "lng": "-77.609998"
    }
  },
  {
    "model": "salesreps.postalcode",
    "pk": 2818,
    "fields": {
      "postal_code": "14650",
      "lat": "43.159993",
      "lng": "-77.609998"
    }
  },
  {
    "model": "salesreps.postalcode",
    "pk": 2819,
    "fields": {
      "postal_code": "14651",
      "lat": "43.159993",
      "lng": "-77.609998"
    }
  },
  {
    "model": "salesreps.postalcode",
    "pk": 2820,
    "fields": {
      "postal_code": "14652",
      "lat": "43.159993",
      "lng": "-77.609998"
    }
  },
  {
    "model": "salesreps.postalcode",
    "pk": 2821,
    "fields": {
      "postal_code": "14653",
      "lat": "43.159993",
      "lng": "-77.609998"
    }
  },
  {
    "model": "salesreps.postalcode",
    "pk": 2822,
    "fields": {
      "postal_code": "14664",
      "lat": "43.150024",
      "lng": "-77.600259"
    }
  },
  {
    "model": "salesreps.postalcode",
    "pk": 2823,
    "fields": {
      "postal_code": "14673",
      "lat": "43.150024",
      "lng": "-77.600259"
    }
  },
  {
    "model": "salesreps.postalcode",
    "pk": 2824,
    "fields": {
      "postal_code": "14683",
      "lat": "43.150024",
      "lng": "-77.600259"
    }
  },
  {
    "model": "salesreps.postalcode",
    "pk": 2825,
    "fields": {
      "postal_code": "14692",
      "lat": "43.159993",
      "lng": "-77.609998"
    }
  },
  {
    "model": "salesreps.postalcode",
    "pk": 2826,
    "fields": {
      "postal_code": "14694",
      "lat": "43.159993",
      "lng": "-77.609998"
    }
  },
  {
    "model": "salesreps.postalcode",
    "pk": 2827,
    "fields": {
      "postal_code": "14001",
      "lat": "43.036578",
      "lng": "-78.510689"
    }
  },
  {
    "model": "salesreps.postalcode",
    "pk": 2828,
    "fields": {
      "postal_code": "14004",
      "lat": "42.891392",
      "lng": "-78.503811"
    }
  },
  {
    "model": "salesreps.postalcode",
    "pk": 2829,
    "fields": {
      "postal_code": "14006",
      "lat": "42.633102",
      "lng": "-79.021764"
    }
  },
  {
    "model": "salesreps.postalcode",
    "pk": 2830,
    "fields": {
      "postal_code": "14010",
      "lat": "42.729988",
      "lng": "-78.840136"
    }
  },
  {
    "model": "salesreps.postalcode",
    "pk": 2831,
    "fields": {
      "postal_code": "14025",
      "lat": "42.622214",
      "lng": "-78.727267"
    }
  },
  {
    "model": "salesreps.postalcode",
    "pk": 2832,
    "fields": {
      "postal_code": "14026",
      "lat": "42.942328",
      "lng": "-78.687734"
    }
  },
  {
    "model": "salesreps.postalcode",
    "pk": 2833,
    "fields": {
      "postal_code": "14027",
      "lat": "42.579990",
      "lng": "-79.020050"
    }
  },
  {
    "model": "salesreps.postalcode",
    "pk": 2834,
    "fields": {
      "postal_code": "14030",
      "lat": "42.564404",
      "lng": "-78.507820"
    }
  },
  {
    "model": "salesreps.postalcode",
    "pk": 2835,
    "fields": {
      "postal_code": "14031",
      "lat": "42.983122",
      "lng": "-78.614391"
    }
  },
  {
    "model": "salesreps.postalcode",
    "pk": 2836,
    "fields": {
      "postal_code": "14032",
      "lat": "43.046721",
      "lng": "-78.631009"
    }
  },
  {
    "model": "salesreps.postalcode",
    "pk": 2837,
    "fields": {
      "postal_code": "14033",
      "lat": "42.654357",
      "lng": "-78.692317"
    }
  },
  {
    "model": "salesreps.postalcode",
    "pk": 2838,
    "fields": {
      "postal_code": "14034",
      "lat": "42.500575",
      "lng": "-78.865346"
    }
  },
  {
    "model": "salesreps.postalcode",
    "pk": 2839,
    "fields": {
      "postal_code": "14035",
      "lat": "42.490778",
      "lng": "-78.848161"
    }
  },
  {
    "model": "salesreps.postalcode",
    "pk": 2840,
    "fields": {
      "postal_code": "14038",
      "lat": "43.020022",
      "lng": "-78.510115"
    }
  },
  {
    "model": "salesreps.postalcode",
    "pk": 2841,
    "fields": {
      "postal_code": "14043",
      "lat": "42.901993",
      "lng": "-78.703204"
    }
  },
  {
    "model": "salesreps.postalcode",
    "pk": 2842,
    "fields": {
      "postal_code": "14047",
      "lat": "42.687361",
      "lng": "-78.986814"
    }
  },
  {
    "model": "salesreps.postalcode",
    "pk": 2843,
    "fields": {
      "postal_code": "14051",
      "lat": "43.042824",
      "lng": "-78.699188"
    }
  },
  {
    "model": "salesreps.postalcode",
    "pk": 2844,
    "fields": {
      "postal_code": "14052",
      "lat": "42.772502",
      "lng": "-78.584598"
    }
  },
  {
    "model": "salesreps.postalcode",
    "pk": 2845,
    "fields": {
      "postal_code": "14055",
      "lat": "42.562857",
      "lng": "-78.600068"
    }
  },
  {
    "model": "salesreps.postalcode",
    "pk": 2846,
    "fields": {
      "postal_code": "14057",
      "lat": "42.646567",
      "lng": "-78.874519"
    }
  },
  {
    "model": "salesreps.postalcode",
    "pk": 2847,
    "fields": {
      "postal_code": "14059",
      "lat": "42.833523",
      "lng": "-78.633871"
    }
  },
  {
    "model": "salesreps.postalcode",
    "pk": 2848,
    "fields": {
      "postal_code": "14061",
      "lat": "42.593855",
      "lng": "-79.079063"
    }
  },
  {
    "model": "salesreps.postalcode",
    "pk": 2849,
    "fields": {
      "postal_code": "14068",
      "lat": "43.027412",
      "lng": "-78.756487"
    }
  },
  {
    "model": "salesreps.postalcode",
    "pk": 2850,
    "fields": {
      "postal_code": "14069",
      "lat": "42.615227",
      "lng": "-78.643044"
    }
  },
  {
    "model": "salesreps.postalcode",
    "pk": 2851,
    "fields": {
      "postal_code": "14072",
      "lat": "43.017901",
      "lng": "-78.962751"
    }
  },
  {
    "model": "salesreps.postalcode",
    "pk": 2852,
    "fields": {
      "postal_code": "14075",
      "lat": "42.712629",
      "lng": "-78.834979"
    }
  },
  {
    "model": "salesreps.postalcode",
    "pk": 2853,
    "fields": {
      "postal_code": "14080",
      "lat": "42.648343",
      "lng": "-78.548501"
    }
  },
  {
    "model": "salesreps.postalcode",
    "pk": 2854,
    "fields": {
      "postal_code": "14085",
      "lat": "42.717898",
      "lng": "-78.921497"
    }
  },
  {
    "model": "salesreps.postalcode",
    "pk": 2855,
    "fields": {
      "postal_code": "14086",
      "lat": "42.909038",
      "lng": "-78.629288"
    }
  },
  {
    "model": "salesreps.postalcode",
    "pk": 2856,
    "fields": {
      "postal_code": "14091",
      "lat": "42.538220",
      "lng": "-78.892851"
    }
  },
  {
    "model": "salesreps.postalcode",
    "pk": 2857,
    "fields": {
      "postal_code": "14102",
      "lat": "42.837017",
      "lng": "-78.557673"
    }
  },
  {
    "model": "salesreps.postalcode",
    "pk": 2858,
    "fields": {
      "postal_code": "14110",
      "lat": "42.670002",
      "lng": "-78.779976"
    }
  },
  {
    "model": "salesreps.postalcode",
    "pk": 2859,
    "fields": {
      "postal_code": "14111",
      "lat": "42.580277",
      "lng": "-78.904886"
    }
  },
  {
    "model": "salesreps.postalcode",
    "pk": 2860,
    "fields": {
      "postal_code": "14112",
      "lat": "42.697961",
      "lng": "-78.939836"
    }
  },
  {
    "model": "salesreps.postalcode",
    "pk": 2861,
    "fields": {
      "postal_code": "14127",
      "lat": "42.752794",
      "lng": "-78.739869"
    }
  },
  {
    "model": "salesreps.postalcode",
    "pk": 2862,
    "fields": {
      "postal_code": "14134",
      "lat": "42.527678",
      "lng": "-78.523864"
    }
  },
  {
    "model": "salesreps.postalcode",
    "pk": 2863,
    "fields": {
      "postal_code": "14139",
      "lat": "42.718414",
      "lng": "-78.541629"
    }
  },
  {
    "model": "salesreps.postalcode",
    "pk": 2864,
    "fields": {
      "postal_code": "14140",
      "lat": "42.829972",
      "lng": "-78.629862"
    }
  },
  {
    "model": "salesreps.postalcode",
    "pk": 2865,
    "fields": {
      "postal_code": "14141",
      "lat": "42.524983",
      "lng": "-78.711797"
    }
  },
  {
    "model": "salesreps.postalcode",
    "pk": 2866,
    "fields": {
      "postal_code": "14150",
      "lat": "42.998076",
      "lng": "-78.878528"
    }
  },
  {
    "model": "salesreps.postalcode",
    "pk": 2867,
    "fields": {
      "postal_code": "14151",
      "lat": "43.000023",
      "lng": "-78.869929"
    }
  },
  {
    "model": "salesreps.postalcode",
    "pk": 2868,
    "fields": {
      "postal_code": "14169",
      "lat": "42.766143",
      "lng": "-78.523864"
    }
  },
  {
    "model": "salesreps.postalcode",
    "pk": 2869,
    "fields": {
      "postal_code": "14170",
      "lat": "42.700253",
      "lng": "-78.674552"
    }
  },
  {
    "model": "salesreps.postalcode",
    "pk": 2870,
    "fields": {
      "postal_code": "14201",
      "lat": "42.896033",
      "lng": "-78.886547"
    }
  },
  {
    "model": "salesreps.postalcode",
    "pk": 2871,
    "fields": {
      "postal_code": "14202",
      "lat": "42.881478",
      "lng": "-78.877381"
    }
  },
  {
    "model": "salesreps.postalcode",
    "pk": 2872,
    "fields": {
      "postal_code": "14203",
      "lat": "42.868931",
      "lng": "-78.869929"
    }
  },
  {
    "model": "salesreps.postalcode",
    "pk": 2873,
    "fields": {
      "postal_code": "14204",
      "lat": "42.882110",
      "lng": "-78.861337"
    }
  },
  {
    "model": "salesreps.postalcode",
    "pk": 2874,
    "fields": {
      "postal_code": "14205",
      "lat": "42.879989",
      "lng": "-78.849876"
    }
  },
  {
    "model": "salesreps.postalcode",
    "pk": 2875,
    "fields": {
      "postal_code": "14206",
      "lat": "42.880105",
      "lng": "-78.810343"
    }
  },
  {
    "model": "salesreps.postalcode",
    "pk": 2876,
    "fields": {
      "postal_code": "14207",
      "lat": "42.951952",
      "lng": "-78.899156"
    }
  },
  {
    "model": "salesreps.postalcode",
    "pk": 2877,
    "fields": {
      "postal_code": "14208",
      "lat": "42.915912",
      "lng": "-78.853318"
    }
  },
  {
    "model": "salesreps.postalcode",
    "pk": 2878,
    "fields": {
      "postal_code": "14209",
      "lat": "42.913966",
      "lng": "-78.865920"
    }
  },
  {
    "model": "salesreps.postalcode",
    "pk": 2879,
    "fields": {
      "postal_code": "14210",
      "lat": "42.862630",
      "lng": "-78.828682"
    }
  },
  {
    "model": "salesreps.postalcode",
    "pk": 2880,
    "fields": {
      "postal_code": "14211",
      "lat": "42.906746",
      "lng": "-78.820082"
    }
  },
  {
    "model": "salesreps.postalcode",
    "pk": 2881,
    "fields": {
      "postal_code": "14212",
      "lat": "42.894199",
      "lng": "-78.820082"
    }
  },
  {
    "model": "salesreps.postalcode",
    "pk": 2882,
    "fields": {
      "postal_code": "14213",
      "lat": "42.918091",
      "lng": "-78.892278"
    }
  },
  {
    "model": "salesreps.postalcode",
    "pk": 2883,
    "fields": {
      "postal_code": "14214",
      "lat": "42.939634",
      "lng": "-78.840710"
    }
  },
  {
    "model": "salesreps.postalcode",
    "pk": 2884,
    "fields": {
      "postal_code": "14215",
      "lat": "42.935279",
      "lng": "-78.810916"
    }
  },
  {
    "model": "salesreps.postalcode",
    "pk": 2885,
    "fields": {
      "postal_code": "14216",
      "lat": "42.949602",
      "lng": "-78.861337"
    }
  },
  {
    "model": "salesreps.postalcode",
    "pk": 2886,
    "fields": {
      "postal_code": "14217",
      "lat": "42.971893",
      "lng": "-78.876807"
    }
  },
  {
    "model": "salesreps.postalcode",
    "pk": 2887,
    "fields": {
      "postal_code": "14218",
      "lat": "42.819371",
      "lng": "-78.830970"
    }
  },
  {
    "model": "salesreps.postalcode",
    "pk": 2888,
    "fields": {
      "postal_code": "14219",
      "lat": "42.788659",
      "lng": "-78.826387"
    }
  },
  {
    "model": "salesreps.postalcode",
    "pk": 2889,
    "fields": {
      "postal_code": "14220",
      "lat": "42.845725",
      "lng": "-78.821804"
    }
  },
  {
    "model": "salesreps.postalcode",
    "pk": 2890,
    "fields": {
      "postal_code": "14221",
      "lat": "42.984498",
      "lng": "-78.722684"
    }
  },
  {
    "model": "salesreps.postalcode",
    "pk": 2891,
    "fields": {
      "postal_code": "14222",
      "lat": "42.919809",
      "lng": "-78.876807"
    }
  },
  {
    "model": "salesreps.postalcode",
    "pk": 2892,
    "fields": {
      "postal_code": "14223",
      "lat": "42.973440",
      "lng": "-78.846440"
    }
  },
  {
    "model": "salesreps.postalcode",
    "pk": 2893,
    "fields": {
      "postal_code": "14224",
      "lat": "42.837761",
      "lng": "-78.747894"
    }
  },
  {
    "model": "salesreps.postalcode",
    "pk": 2894,
    "fields": {
      "postal_code": "14225",
      "lat": "42.928921",
      "lng": "-78.750182"
    }
  },
  {
    "model": "salesreps.postalcode",
    "pk": 2895,
    "fields": {
      "postal_code": "14226",
      "lat": "42.971032",
      "lng": "-78.796593"
    }
  },
  {
    "model": "salesreps.postalcode",
    "pk": 2896,
    "fields": {
      "postal_code": "14227",
      "lat": "42.886864",
      "lng": "-78.730703"
    }
  },
  {
    "model": "salesreps.postalcode",
    "pk": 2897,
    "fields": {
      "postal_code": "14228",
      "lat": "43.044371",
      "lng": "-78.777114"
    }
  },
  {
    "model": "salesreps.postalcode",
    "pk": 2898,
    "fields": {
      "postal_code": "14231",
      "lat": "42.879989",
      "lng": "-78.849876"
    }
  },
  {
    "model": "salesreps.postalcode",
    "pk": 2899,
    "fields": {
      "postal_code": "14233",
      "lat": "42.879989",
      "lng": "-78.849876"
    }
  },
  {
    "model": "salesreps.postalcode",
    "pk": 2900,
    "fields": {
      "postal_code": "14240",
      "lat": "42.879989",
      "lng": "-78.849876"
    }
  },
  {
    "model": "salesreps.postalcode",
    "pk": 2901,
    "fields": {
      "postal_code": "14241",
      "lat": "42.879989",
      "lng": "-78.849876"
    }
  },
  {
    "model": "salesreps.postalcode",
    "pk": 2902,
    "fields": {
      "postal_code": "14260",
      "lat": "42.879989",
      "lng": "-78.849876"
    }
  },
  {
    "model": "salesreps.postalcode",
    "pk": 2903,
    "fields": {
      "postal_code": "14261",
      "lat": "43.007703",
      "lng": "-78.791437"
    }
  },
  {
    "model": "salesreps.postalcode",
    "pk": 2904,
    "fields": {
      "postal_code": "14263",
      "lat": "42.879989",
      "lng": "-78.849876"
    }
  },
  {
    "model": "salesreps.postalcode",
    "pk": 2905,
    "fields": {
      "postal_code": "14264",
      "lat": "42.879989",
      "lng": "-78.849876"
    }
  },
  {
    "model": "salesreps.postalcode",
    "pk": 2906,
    "fields": {
      "postal_code": "14265",
      "lat": "42.879989",
      "lng": "-78.849876"
    }
  },
  {
    "model": "salesreps.postalcode",
    "pk": 2907,
    "fields": {
      "postal_code": "14267",
      "lat": "42.879989",
      "lng": "-78.849876"
    }
  },
  {
    "model": "salesreps.postalcode",
    "pk": 2908,
    "fields": {
      "postal_code": "14269",
      "lat": "42.879989",
      "lng": "-78.849876"
    }
  },
  {
    "model": "salesreps.postalcode",
    "pk": 2909,
    "fields": {
      "postal_code": "14270",
      "lat": "42.879989",
      "lng": "-78.849876"
    }
  },
  {
    "model": "salesreps.postalcode",
    "pk": 2910,
    "fields": {
      "postal_code": "14272",
      "lat": "42.879989",
      "lng": "-78.849876"
    }
  },
  {
    "model": "salesreps.postalcode",
    "pk": 2911,
    "fields": {
      "postal_code": "14273",
      "lat": "42.879989",
      "lng": "-78.849876"
    }
  },
  {
    "model": "salesreps.postalcode",
    "pk": 2912,
    "fields": {
      "postal_code": "14276",
      "lat": "42.879989",
      "lng": "-78.849876"
    }
  },
  {
    "model": "salesreps.postalcode",
    "pk": 2913,
    "fields": {
      "postal_code": "14280",
      "lat": "42.879989",
      "lng": "-78.849876"
    }
  },
  {
    "model": "salesreps.postalcode",
    "pk": 2914,
    "fields": {
      "postal_code": "13020",
      "lat": "42.816448",
      "lng": "-76.074469"
    }
  },
  {
    "model": "salesreps.postalcode",
    "pk": 2915,
    "fields": {
      "postal_code": "13027",
      "lat": "43.166410",
      "lng": "-76.364390"
    }
  },
  {
    "model": "salesreps.postalcode",
    "pk": 2916,
    "fields": {
      "postal_code": "13029",
      "lat": "43.225942",
      "lng": "-76.151248"
    }
  },
  {
    "model": "salesreps.postalcode",
    "pk": 2917,
    "fields": {
      "postal_code": "13030",
      "lat": "43.152257",
      "lng": "-75.962741"
    }
  },
  {
    "model": "salesreps.postalcode",
    "pk": 2918,
    "fields": {
      "postal_code": "13031",
      "lat": "43.045003",
      "lng": "-76.309387"
    }
  },
  {
    "model": "salesreps.postalcode",
    "pk": 2919,
    "fields": {
      "postal_code": "13039",
      "lat": "43.172140",
      "lng": "-76.056137"
    }
  },
  {
    "model": "salesreps.postalcode",
    "pk": 2920,
    "fields": {
      "postal_code": "13041",
      "lat": "43.192081",
      "lng": "-76.192502"
    }
  },
  {
    "model": "salesreps.postalcode",
    "pk": 2921,
    "fields": {
      "postal_code": "13051",
      "lat": "42.876724",
      "lng": "-75.908885"
    }
  },
  {
    "model": "salesreps.postalcode",
    "pk": 2922,
    "fields": {
      "postal_code": "13057",
      "lat": "43.101953",
      "lng": "-76.037805"
    }
  },
  {
    "model": "salesreps.postalcode",
    "pk": 2923,
    "fields": {
      "postal_code": "13060",
      "lat": "43.022883",
      "lng": "-76.411942"
    }
  },
  {
    "model": "salesreps.postalcode",
    "pk": 2924,
    "fields": {
      "postal_code": "13063",
      "lat": "42.847846",
      "lng": "-75.978212"
    }
  },
  {
    "model": "salesreps.postalcode",
    "pk": 2925,
    "fields": {
      "postal_code": "13066",
      "lat": "43.032453",
      "lng": "-76.000560"
    }
  },
  {
    "model": "salesreps.postalcode",
    "pk": 2926,
    "fields": {
      "postal_code": "13078",
      "lat": "42.958427",
      "lng": "-76.061294"
    }
  },
  {
    "model": "salesreps.postalcode",
    "pk": 2927,
    "fields": {
      "postal_code": "13080",
      "lat": "43.093187",
      "lng": "-76.485285"
    }
  },
  {
    "model": "salesreps.postalcode",
    "pk": 2928,
    "fields": {
      "postal_code": "13082",
      "lat": "43.102756",
      "lng": "-75.959879"
    }
  },
  {
    "model": "salesreps.postalcode",
    "pk": 2929,
    "fields": {
      "postal_code": "13084",
      "lat": "42.880563",
      "lng": "-76.124316"
    }
  },
  {
    "model": "salesreps.postalcode",
    "pk": 2930,
    "fields": {
      "postal_code": "13088",
      "lat": "43.112437",
      "lng": "-76.189633"
    }
  },
  {
    "model": "salesreps.postalcode",
    "pk": 2931,
    "fields": {
      "postal_code": "13089",
      "lat": "43.100007",
      "lng": "-76.210260"
    }
  },
  {
    "model": "salesreps.postalcode",
    "pk": 2932,
    "fields": {
      "postal_code": "13090",
      "lat": "43.153060",
      "lng": "-76.212555"
    }
  },
  {
    "model": "salesreps.postalcode",
    "pk": 2933,
    "fields": {
      "postal_code": "13104",
      "lat": "42.963010",
      "lng": "-75.948418"
    }
  },
  {
    "model": "salesreps.postalcode",
    "pk": 2934,
    "fields": {
      "postal_code": "13108",
      "lat": "42.964844",
      "lng": "-76.331155"
    }
  },
  {
    "model": "salesreps.postalcode",
    "pk": 2935,
    "fields": {
      "postal_code": "13110",
      "lat": "42.895401",
      "lng": "-76.280161"
    }
  },
  {
    "model": "salesreps.postalcode",
    "pk": 2936,
    "fields": {
      "postal_code": "13112",
      "lat": "43.106249",
      "lng": "-76.417099"
    }
  },
  {
    "model": "salesreps.postalcode",
    "pk": 2937,
    "fields": {
      "postal_code": "13116",
      "lat": "43.074796",
      "lng": "-76.008005"
    }
  },
  {
    "model": "salesreps.postalcode",
    "pk": 2938,
    "fields": {
      "postal_code": "13119",
      "lat": "42.970001",
      "lng": "-76.440021"
    }
  },
  {
    "model": "salesreps.postalcode",
    "pk": 2939,
    "fields": {
      "postal_code": "13120",
      "lat": "42.933159",
      "lng": "-76.175310"
    }
  },
  {
    "model": "salesreps.postalcode",
    "pk": 2940,
    "fields": {
      "postal_code": "13137",
      "lat": "43.150024",
      "lng": "-76.440021"
    }
  },
  {
    "model": "salesreps.postalcode",
    "pk": 2941,
    "fields": {
      "postal_code": "13138",
      "lat": "42.899069",
      "lng": "-76.014883"
    }
  },
  {
    "model": "salesreps.postalcode",
    "pk": 2942,
    "fields": {
      "postal_code": "13152",
      "lat": "42.890818",
      "lng": "-76.372409"
    }
  },
  {
    "model": "salesreps.postalcode",
    "pk": 2943,
    "fields": {
      "postal_code": "13153",
      "lat": "42.996529",
      "lng": "-76.453770"
    }
  },
  {
    "model": "salesreps.postalcode",
    "pk": 2944,
    "fields": {
      "postal_code": "13159",
      "lat": "42.802986",
      "lng": "-76.111714"
    }
  },
  {
    "model": "salesreps.postalcode",
    "pk": 2945,
    "fields": {
      "postal_code": "13164",
      "lat": "43.096912",
      "lng": "-76.312823"
    }
  },
  {
    "model": "salesreps.postalcode",
    "pk": 2946,
    "fields": {
      "postal_code": "13201",
      "lat": "43.040017",
      "lng": "-76.139786"
    }
  },
  {
    "model": "salesreps.postalcode",
    "pk": 2947,
    "fields": {
      "postal_code": "13202",
      "lat": "43.043798",
      "lng": "-76.150674"
    }
  },
  {
    "model": "salesreps.postalcode",
    "pk": 2948,
    "fields": {
      "postal_code": "13203",
      "lat": "43.061102",
      "lng": "-76.135203"
    }
  },
  {
    "model": "salesreps.postalcode",
    "pk": 2949,
    "fields": {
      "postal_code": "13204",
      "lat": "43.050788",
      "lng": "-76.177605"
    }
  },
  {
    "model": "salesreps.postalcode",
    "pk": 2950,
    "fields": {
      "postal_code": "13205",
      "lat": "43.005296",
      "lng": "-76.142081"
    }
  },
  {
    "model": "salesreps.postalcode",
    "pk": 2951,
    "fields": {
      "postal_code": "13206",
      "lat": "43.073478",
      "lng": "-76.105984"
    }
  },
  {
    "model": "salesreps.postalcode",
    "pk": 2952,
    "fields": {
      "postal_code": "13207",
      "lat": "43.012802",
      "lng": "-76.163282"
    }
  },
  {
    "model": "salesreps.postalcode",
    "pk": 2953,
    "fields": {
      "postal_code": "13208",
      "lat": "43.078748",
      "lng": "-76.144943"
    }
  },
  {
    "model": "salesreps.postalcode",
    "pk": 2954,
    "fields": {
      "postal_code": "13209",
      "lat": "43.068492",
      "lng": "-76.224016"
    }
  },
  {
    "model": "salesreps.postalcode",
    "pk": 2955,
    "fields": {
      "postal_code": "13210",
      "lat": "43.031080",
      "lng": "-76.127185"
    }
  },
  {
    "model": "salesreps.postalcode",
    "pk": 2956,
    "fields": {
      "postal_code": "13211",
      "lat": "43.103558",
      "lng": "-76.119733"
    }
  },
  {
    "model": "salesreps.postalcode",
    "pk": 2957,
    "fields": {
      "postal_code": "13212",
      "lat": "43.129684",
      "lng": "-76.130047"
    }
  },
  {
    "model": "salesreps.postalcode",
    "pk": 2958,
    "fields": {
      "postal_code": "13214",
      "lat": "43.038699",
      "lng": "-76.075617"
    }
  },
  {
    "model": "salesreps.postalcode",
    "pk": 2959,
    "fields": {
      "postal_code": "13215",
      "lat": "42.980772",
      "lng": "-76.223443"
    }
  },
  {
    "model": "salesreps.postalcode",
    "pk": 2960,
    "fields": {
      "postal_code": "13217",
      "lat": "43.040017",
      "lng": "-76.139786"
    }
  },
  {
    "model": "salesreps.postalcode",
    "pk": 2961,
    "fields": {
      "postal_code": "13218",
      "lat": "43.040017",
      "lng": "-76.139786"
    }
  },
  {
    "model": "salesreps.postalcode",
    "pk": 2962,
    "fields": {
      "postal_code": "13219",
      "lat": "43.041277",
      "lng": "-76.224016"
    }
  },
  {
    "model": "salesreps.postalcode",
    "pk": 2963,
    "fields": {
      "postal_code": "13220",
      "lat": "43.040017",
      "lng": "-76.139786"
    }
  },
  {
    "model": "salesreps.postalcode",
    "pk": 2964,
    "fields": {
      "postal_code": "13221",
      "lat": "43.040017",
      "lng": "-76.139786"
    }
  },
  {
    "model": "salesreps.postalcode",
    "pk": 2965,
    "fields": {
      "postal_code": "13224",
      "lat": "43.037152",
      "lng": "-76.103122"
    }
  },
  {
    "model": "salesreps.postalcode",
    "pk": 2966,
    "fields": {
      "postal_code": "13225",
      "lat": "43.040017",
      "lng": "-76.139786"
    }
  },
  {
    "model": "salesreps.postalcode",
    "pk": 2967,
    "fields": {
      "postal_code": "13235",
      "lat": "43.040017",
      "lng": "-76.130047"
    }
  },
  {
    "model": "salesreps.postalcode",
    "pk": 2968,
    "fields": {
      "postal_code": "13244",
      "lat": "43.040017",
      "lng": "-76.139786"
    }
  },
  {
    "model": "salesreps.postalcode",
    "pk": 2969,
    "fields": {
      "postal_code": "13250",
      "lat": "43.040017",
      "lng": "-76.139786"
    }
  },
  {
    "model": "salesreps.postalcode",
    "pk": 2970,
    "fields": {
      "postal_code": "13251",
      "lat": "43.040017",
      "lng": "-76.139786"
    }
  },
  {
    "model": "salesreps.postalcode",
    "pk": 2971,
    "fields": {
      "postal_code": "13252",
      "lat": "43.040017",
      "lng": "-76.139786"
    }
  },
  {
    "model": "salesreps.postalcode",
    "pk": 2972,
    "fields": {
      "postal_code": "13261",
      "lat": "43.040017",
      "lng": "-76.139786"
    }
  },
  {
    "model": "salesreps.postalcode",
    "pk": 2973,
    "fields": {
      "postal_code": "13290",
      "lat": "43.069124",
      "lng": "-76.173022"
    }
  },
  {
    "model": "salesreps.postalcode",
    "pk": 2974,
    "fields": {
      "postal_code": "12007",
      "lat": "42.455657",
      "lng": "-73.927024"
    }
  },
  {
    "model": "salesreps.postalcode",
    "pk": 2975,
    "fields": {
      "postal_code": "12009",
      "lat": "42.697732",
      "lng": "-74.035316"
    }
  },
  {
    "model": "salesreps.postalcode",
    "pk": 2976,
    "fields": {
      "postal_code": "12023",
      "lat": "42.598551",
      "lng": "-74.183135"
    }
  },
  {
    "model": "salesreps.postalcode",
    "pk": 2977,
    "fields": {
      "postal_code": "12041",
      "lat": "42.577927",
      "lng": "-73.952808"
    }
  },
  {
    "model": "salesreps.postalcode",
    "pk": 2978,
    "fields": {
      "postal_code": "12045",
      "lat": "42.482530",
      "lng": "-73.800399"
    }
  },
  {
    "model": "salesreps.postalcode",
    "pk": 2979,
    "fields": {
      "postal_code": "12046",
      "lat": "42.507508",
      "lng": "-73.925876"
    }
  },
  {
    "model": "salesreps.postalcode",
    "pk": 2980,
    "fields": {
      "postal_code": "12047",
      "lat": "42.784076",
      "lng": "-73.726489"
    }
  },
  {
    "model": "salesreps.postalcode",
    "pk": 2981,
    "fields": {
      "postal_code": "12054",
      "lat": "42.608523",
      "lng": "-73.864575"
    }
  },
  {
    "model": "salesreps.postalcode",
    "pk": 2982,
    "fields": {
      "postal_code": "12055",
      "lat": "42.429989",
      "lng": "-74.190013"
    }
  },
  {
    "model": "salesreps.postalcode",
    "pk": 2983,
    "fields": {
      "postal_code": "12059",
      "lat": "42.619236",
      "lng": "-74.061100"
    }
  },
  {
    "model": "salesreps.postalcode",
    "pk": 2984,
    "fields": {
      "postal_code": "12067",
      "lat": "42.557471",
      "lng": "-73.920153"
    }
  },
  {
    "model": "salesreps.postalcode",
    "pk": 2985,
    "fields": {
      "postal_code": "12077",
      "lat": "42.588183",
      "lng": "-73.777484"
    }
  },
  {
    "model": "salesreps.postalcode",
    "pk": 2986,
    "fields": {
      "postal_code": "12084",
      "lat": "42.704665",
      "lng": "-73.899525"
    }
  },
  {
    "model": "salesreps.postalcode",
    "pk": 2987,
    "fields": {
      "postal_code": "12085",
      "lat": "42.703289",
      "lng": "-73.963121"
    }
  },
  {
    "model": "salesreps.postalcode",
    "pk": 2988,
    "fields": {
      "postal_code": "12107",
      "lat": "42.670002",
      "lng": "-74.109800"
    }
  },
  {
    "model": "salesreps.postalcode",
    "pk": 2989,
    "fields": {
      "postal_code": "12110",
      "lat": "42.750557",
      "lng": "-73.776336"
    }
  },
  {
    "model": "salesreps.postalcode",
    "pk": 2990,
    "fields": {
      "postal_code": "12120",
      "lat": "42.449697",
      "lng": "-74.148759"
    }
  },
  {
    "model": "salesreps.postalcode",
    "pk": 2991,
    "fields": {
      "postal_code": "12128",
      "lat": "42.700024",
      "lng": "-73.759725"
    }
  },
  {
    "model": "salesreps.postalcode",
    "pk": 2992,
    "fields": {
      "postal_code": "12143",
      "lat": "42.489804",
      "lng": "-73.855402"
    }
  },
  {
    "model": "salesreps.postalcode",
    "pk": 2993,
    "fields": {
      "postal_code": "12147",
      "lat": "42.518624",
      "lng": "-74.159073"
    }
  },
  {
    "model": "salesreps.postalcode",
    "pk": 2994,
    "fields": {
      "postal_code": "12158",
      "lat": "42.542175",
      "lng": "-73.822174"
    }
  },
  {
    "model": "salesreps.postalcode",
    "pk": 2995,
    "fields": {
      "postal_code": "12159",
      "lat": "42.651437",
      "lng": "-73.885769"
    }
  },
  {
    "model": "salesreps.postalcode",
    "pk": 2996,
    "fields": {
      "postal_code": "12161",
      "lat": "42.534781",
      "lng": "-73.854835"
    }
  },
  {
    "model": "salesreps.postalcode",
    "pk": 2997,
    "fields": {
      "postal_code": "12183",
      "lat": "42.747866",
      "lng": "-73.692687"
    }
  },
  {
    "model": "salesreps.postalcode",
    "pk": 2998,
    "fields": {
      "postal_code": "12186",
      "lat": "42.633160",
      "lng": "-73.977444"
    }
  },
  {
    "model": "salesreps.postalcode",
    "pk": 2999,
    "fields": {
      "postal_code": "12189",
      "lat": "42.736350",
      "lng": "-73.717323"
    }
  },
  {
    "model": "salesreps.postalcode",
    "pk": 3000,
    "fields": {
      "postal_code": "12193",
      "lat": "42.522750",
      "lng": "-74.043335"
    }
  }
]